Building Name,Cleaned Name,Latitude,Longitude,Full Address
101 Marshall College,101 MARSHALL COLLEGE,32.881168,-117.2343605,"9500 Gilman Dr, La Jolla, CA 92093, USA"
102 Marshall College,102 MARSHALL COLLEGE,32.881168,-117.2343605,"9500 Gilman Dr, La Jolla, CA 92093, USA"
103 Marshall College,103 MARSHALL COLLEGE,32.881168,-117.2343605,"9500 Gilman Dr, La Jolla, CA 92093, USA"
10300 Campus Point Drive,10300 CAMPUS POINT DRIVE,32.8923799,-117.2225842,"10300 Campus Point Dr, San Diego, CA 92121, USA"
10350 North Torrey Pines Road,10350 NORTH TORREY PINES ROAD,32.891569,-117.2417027,"10350 N Torrey Pines Rd, La Jolla, CA 92037, USA"
103A Marshall College,103A MARSHALL COLLEGE,32.881168,-117.2343605,"9500 Gilman Dr, La Jolla, CA 92093, USA"
10995 Gold Center Drive,10995 GOLD CENTER DRIVE,32.8328112,-117.2712717,"La Jolla, San Diego, CA, USA"
11388 Sorrento Valley Road,11388 SORRENTO VALLEY ROAD,32.9087332,-117.2294271,"11388 Sorrento Valley Rd, San Diego, CA 92121, USA"
114 Arbor,114 ARBOR,32.881168,-117.2343605,"9500 Gilman Dr, La Jolla, CA 92093, USA"
1200 Garden View Road,1200 GARDEN VIEW ROAD,33.0580275,-117.2602993,"1200 Garden View Rd, Encinitas, CA 92024, USA"
1220 El Carmel Place,1220 EL CARMEL PLACE,32.7796823,-117.2482126,"1220 El Carmel Pl, San Diego, CA 92109, USA"
1241 Cave Street,1241 CAVE STREET,32.8476648,-117.2712175,"1241 Cave St, La Jolla, CA 92037, USA"
125 Dickinson Street,125 DICKINSON STREET,32.755059,-117.1644796,"125 Dickinson St, San Diego, CA 92103, USA"
134 Dickinson,134 DICKINSON,32.881168,-117.2343605,"9500 Gilman Dr, La Jolla, CA 92093, USA"
135 Dickinson Street,135 DICKINSON STREET,32.7549935,-117.1645693,"135 Dickinson St, San Diego, CA 92103, USA"
136 Dickinson Street,136 DICKINSON STREET,32.7557244,-117.1646732,"136 Dickinson St, San Diego, CA 92103, USA"
138 Dickinson,138 DICKINSON,32.881168,-117.2343605,"9500 Gilman Dr, La Jolla, CA 92093, USA"
140 Arbor,140 ARBOR,32.881168,-117.2343605,"9500 Gilman Dr, La Jolla, CA 92093, USA"
1450 Frazee Road,1450 FRAZEE ROAD,32.7733986,-117.1593331,"1450 Frazee Rd, San Diego, CA 92108, USA"
150 Dickinson,150 DICKINSON,32.881168,-117.2343605,"9500 Gilman Dr, La Jolla, CA 92093, USA"
150 Dickinson Street,150 DICKINSON STREET,32.7557108,-117.1649831,"Parking Lot P957, 150 Dickinson St, San Diego, CA 92103, USA"
1505 Encinitas Blvd,1505 ENCINITAS BLVD,33.0454539,-117.2567163,"1505 Encinitas Blvd, Encinitas, CA 92024, USA"
1550 Hotel Circle North,1550 HOTEL CIRCLE NORTH,32.7598706,-117.177459,"1550 Hotel Cir N, San Diego, CA 92108, USA"
16766 Bernardo Center Drive,16766 BERNARDO CENTER DRIVE,33.0176445,-117.076304,"R B Medical Dental Building, 16766 Bernardo Center Dr, San Diego, CA 92128, USA"
16918 Dove Canyon Road,16918 DOVE CANYON ROAD,33.0174666,-117.1120591,"16918 Dove Canyon Rd, San Diego, CA 92127, USA"
16950 Via Tazon,16950 VIA TAZON,33.022295,-117.0861957,"16950 Via Tazon, San Diego, CA 92127, USA"
1899 McKee Street,1899 MCKEE STREET,32.7436537,-117.182237,"1899 McKee St, San Diego, CA 92110, USA"
203/213 West F Street,203/213 WEST F STREET,32.7134419,-117.1649553,"203 F St, San Diego, CA 92101, USA"
2131 Third Avenue,2131 THIRD AVENUE,32.7278767,-117.1618604,"2131 Third Ave, San Diego, CA 92101, USA"
22-24 Borgo Ognissanti,22 24 BORGO OGNISSANTI,32.8328112,-117.2712717,"La Jolla, San Diego, CA, USA"
2251 San Diego Avenue,2251 SAN DIEGO AVENUE,32.7486372,-117.1925753,"2251 San Diego Ave, San Diego, CA 92110, USA"
2295 Otay Lakes Road,2295 OTAY LAKES ROAD,32.6482596,-116.9665235,"2295 Otay Lakes Rd, Chula Vista, CA 91915, USA"
2711 Glenwick Place,2711 GLENWICK PLACE,32.8645542,-117.2455665,"2711 Glenwick Pl, La Jolla, CA 92037, USA"
3030 Bunker Hill Street,3030 BUNKER HILL STREET,32.8039251,-117.2147928,"3030 Bunker Hill St, San Diego, CA 92109, USA"
304 Arbor Drive,304 ARBOR DRIVE,32.7540345,-117.1620907,"304 Arbor Dr, San Diego, CA 92103, USA"
306 Arbor Drive,306 ARBOR DRIVE,32.7540343,-117.16207,"306 Arbor Dr, San Diego, CA 92103, USA"
31720 Temecula Parkway,31720 TEMECULA PARKWAY,32.881168,-117.2343605,"9500 Gilman Dr, La Jolla, CA 92093, USA"
3252 Holiday Court,3252 HOLIDAY COURT,32.8708208,-117.2327961,"3252 Holiday Ct, La Jolla, CA 92037, USA"
326 Dickinson,326 DICKINSON,32.881168,-117.2343605,"9500 Gilman Dr, La Jolla, CA 92093, USA"
330 East Lewis Street,330 EAST LEWIS STREET,32.881168,-117.2343605,"9500 Gilman Dr, La Jolla, CA 92093, USA"
3333 North Torrey Pines Court,3333 NORTH TORREY PINES COURT,32.8920895,-117.2425976,"3333 N Torrey Pines Ct, La Jolla, CA 92037, USA"
3344 North Torrey Pines Court,3344 NORTH TORREY PINES COURT,32.893819,-117.2427187,"3344 N Torrey Pines Ct, La Jolla, CA 92037, USA"
3353 Lebon Drive,3353 LEBON DRIVE,32.8652147,-117.2247293,"3353 Lebon Dr, San Diego, CA 92122, USA"
3355 Lebon Drive,3355 LEBON DRIVE,32.864927,-117.224857,"3355 Lebon Dr, San Diego, CA 92122, USA"
3357 Lebon Drive,3357 LEBON DRIVE,32.8649102,-117.2245665,"3357 Lebon Dr, San Diego, CA 92122, USA"
3359 Lebon Drive,3359 LEBON DRIVE,32.864921,-117.2242768,"3359 Lebon Dr, San Diego, CA 92122, USA"
3363 Lebon Drive,3363 LEBON DRIVE,32.8655695,-117.2245305,"3363 Lebon Dr, San Diego, CA 92122, USA"
3365 Lebon Drive,3365 LEBON DRIVE,32.8658086,-117.2244657,"3365 Lebon Dr, San Diego, CA 92122, USA"
3366 North Torrey Pines Court,3366 NORTH TORREY PINES COURT,32.8937534,-117.2417885,"3366 N Torrey Pines Ct, La Jolla, CA 92037, USA"
3367 Lebon Drive,3367 LEBON DRIVE,32.865678,-117.2242693,"3367 Lebon Dr, San Diego, CA 92122, USA"
3371 Lebon Drive,3371 LEBON DRIVE,32.8657956,-117.2241364,"3371 Lebon Dr, San Diego, CA 92122, USA"
3373 Lebon Drive,3373 LEBON DRIVE,32.8657893,-117.2238471,"3373 Lebon Dr, San Diego, CA 92122, USA"
3377 North Torrey Pines Court,3377 NORTH TORREY PINES COURT,32.8921463,-117.2416595,"3377 N Torrey Pines Ct, La Jolla, CA 92037, USA"
3381 Lebon Drive,3381 LEBON DRIVE,32.8655746,-117.223961,"3381 Lebon Dr, San Diego, CA 92122, USA"
3383 Lebon Drive,3383 LEBON DRIVE,32.8657613,-117.2235713,"3383 Lebon Dr, San Diego, CA 92122, USA"
3389 Lebon Drive,3389 LEBON DRIVE,32.8652939,-117.2237879,"3389 Lebon Dr, San Diego, CA 92122, USA"
3391 Lebon Drive,3391 LEBON DRIVE,32.8652146,-117.2235714,"3391 Lebon Dr, San Diego, CA 92122, USA"
3393 Lebon Drive,3393 LEBON DRIVE,32.8649728,-117.2236782,"3393 Lebon Dr, San Diego, CA 92122, USA"
3395 Lebon Drive,3395 LEBON DRIVE,32.8649783,-117.2239665,"3395 Lebon Dr, San Diego, CA 92122, USA"
3500 Fifth Avenue,3500 FIFTH AVENUE,32.7417365,-117.1607117,"3500 Fifth Ave, San Diego, CA 92103, USA"
3510 Dunhill Street,3510 DUNHILL STREET,32.9032762,-117.2307843,"3510 Dunhill St, San Diego, CA 92121, USA"
3525 John Hopkins Court,3525 JOHN HOPKINS COURT,32.8915593,-117.2383837,"3525 John Hopkins Ct, San Diego, CA 92121, USA"
360 Dickinson,360 DICKINSON,32.881168,-117.2343605,"9500 Gilman Dr, La Jolla, CA 92093, USA"
3636 Gateway Center Avenue,3636 GATEWAY CENTER AVENUE,32.7138436,-117.1133087,"3636 Gateway Center Ave, San Diego, CA 92102, USA"
3636 Nobel Drive,3636 NOBEL DRIVE,32.8692687,-117.2276673,"3636 Nobel Dr, San Diego, CA 92122, USA"
3665 Kearny Villa Road,3665 KEARNY VILLA ROAD,32.8086842,-117.1499129,"Rady Children's Health Services, 3665 Kearny Villa Rd, San Diego, CA 92123, USA"
3750 Convoy Street,3750 CONVOY STREET,32.8121481,-117.1534713,"3750 Convoy St, San Diego, CA 92111, USA"
3830 Park Blvd,3830 PARK BLVD,32.7482432,-117.1465107,"3830 Park Blvd, San Diego, CA 92103, USA"
3900 Fifth Avenue,3900 FIFTH AVENUE,32.7485501,-117.1608955,"3900 Fifth Ave, San Diego, CA 92103, USA"
404 Euclid Avenue Suite 385,404 EUCLID AVENUE SUITE 385,32.7091775,-117.08777,"404 Euclid Ave #385, San Diego, CA 92114, USA"
4060 Fourth Avenue,4060 FOURTH AVENUE,32.7512362,-117.1619863,"4060 Fourth Ave, San Diego, CA 92103, USA"
4076 Third Avenue,4076 THIRD AVENUE,32.7516005,-117.1631326,"4076 Third Ave, San Diego, CA 92103, USA"
410 Dickinson,410 DICKINSON,32.881168,-117.2343605,"9500 Gilman Dr, La Jolla, CA 92093, USA"
41011 California Oaks Road,41011 CALIFORNIA OAKS ROAD,32.8328112,-117.2712717,"La Jolla, San Diego, CA, USA"
4109 Front Street,4109 FRONT STREET,32.7521637,-117.1647056,"4109 Front St, San Diego, CA 92103, USA"
4130 La Jolla Village Drive,4130 LA JOLLA VILLAGE DRIVE,32.8722033,-117.2175798,"4130 La Jolla Village Dr, La Jolla, CA 92037, USA"
"4185 Front Street, Units 1-17","4185 FRONT STREET, UNITS 1 17",32.753697,-117.164789,"4185 Front St, San Diego, CA 92103, USA"
4200 West Jemez Road,4200 WEST JEMEZ ROAD,32.881168,-117.2343605,"9500 Gilman Dr, La Jolla, CA 92093, USA"
4235 Front Street,4235 FRONT STREET,32.7545608,-117.1647783,"4235 Front St, San Diego, CA 92103, USA"
4303 La Jolla Village Drive,4303 LA JOLLA VILLAGE DRIVE,32.8715209,-117.2132834,"4303 La Jolla Village Dr, San Diego, CA 92122, USA"
4305 University Avenue,4305 UNIVERSITY AVENUE,32.7494904,-117.1013226,"4305 University Ave, San Diego, CA 92105, USA"
4510 Executive Drive,4510 EXECUTIVE DRIVE,32.87615359999999,-117.2109056,"4510 Executive Dr, San Diego, CA 92121, USA"
4520 Executive Drive,4520 EXECUTIVE DRIVE,32.8764553,-117.2103327,"4520 Executive Dr, San Diego, CA 92121, USA"
477 North El Camino Real,477 NORTH EL CAMINO REAL,33.0573378,-117.2612382,"477 N El Camino Real, Encinitas, CA 92024, USA"
4910 Director's Place,4910 DIRECTOR'S PLACE,32.8944686,-117.2121451,"4910 Directors Pl, San Diego, CA 92121, USA"
5060 Shoreham Place,5060 SHOREHAM PLACE,32.851848,-117.1857534,"5060 Shoreham Pl, San Diego, CA 92122, USA"
5440 Morehouse Drive,5440 MOREHOUSE DRIVE,32.8941745,-117.2011446,"5440 Morehouse Dr, San Diego, CA 92121, USA"
5570 Overland Avenue,5570 OVERLAND AVENUE,32.8348505,-117.1316894,"5570 Overland Ave, San Diego, CA 92123, USA"
5855 Copley Drive,5855 COPLEY DRIVE,32.8429155,-117.1721425,"5855 Copley Dr, San Diego, CA 92111, USA"
6030 Village Way,6030 VILLAGE WAY,32.962573,-117.189475,"6030 Village Way, San Diego, CA 92130, USA"
6165 Greenwich Drive,6165 GREENWICH DRIVE,32.8537845,-117.1833595,"6165 Greenwich Dr, San Diego, CA 92122, USA"
6200 Greenwich Drive,6200 GREENWICH DRIVE,32.8517133,-117.1819737,"6200 Greenwich Dr, San Diego, CA 92122, USA"
6256 Greenwich Drive,6256 GREENWICH DRIVE,32.8523945,-117.1832608,"6256 Greenwich Dr, San Diego, CA 92122, USA"
6333 Greenwich Drive,6333 GREENWICH DRIVE,32.85567,-117.185092,"6333 Greenwich Dr, San Diego, CA 92122, USA"
6363 Greenwich Drive,6363 GREENWICH DRIVE,32.8558707,-117.1847724,"6363 Greenwich Dr, San Diego, CA 92122, USA"
64 Degrees,64 DEGREES,32.8747459,-117.2420341,"9249 S Scholars Dr, La Jolla, CA 92093, USA"
6699 Alvarado Road,6699 ALVARADO ROAD,32.7766266,-117.0550891,"6699 Alvarado Rd, San Diego, CA 92120, USA"
6719 Alvarado Road,6719 ALVARADO ROAD,32.7761574,-117.0542982,"6719 Alvarado Rd, San Diego, CA 92120, USA"
6735 Gifford Way,6735 GIFFORD WAY,32.7849966,-117.1756567,"6735 Gifford Way, San Diego, CA 92111, USA"
7187 Convoy Court,7187 CONVOY COURT,32.8343791,-117.1629297,"7187 Convoy Ct, San Diego, CA 92111, USA"
7197 Convoy Court,7197 CONVOY COURT,32.8341891,-117.1625545,"7197 Convoy Ct, San Diego, CA 92111, USA"
7201 Convoy Court,7201 CONVOY COURT,32.8339966,-117.1621644,"7201 Convoy Ct, San Diego, CA 92111, USA"
7436 Mission Valley Road,7436 MISSION VALLEY ROAD,32.7777861,-117.1614239,"7436 Mission Valley Rd, San Diego, CA 92108, USA"
7695 Cardinal Court,7695 CARDINAL COURT,32.7914049,-117.1582487,"7695 Cardinal Ct, San Diego, CA 92123, USA"
781 Garden View Court,781 GARDEN VIEW COURT,33.0605454,-117.2601693,"781 Garden View Ct, Encinitas, CA 92024, USA"
7835 Trade Street,7835 TRADE STREET,32.8882882,-117.1509389,"7835 Trade St, San Diego, CA 92121, USA"
789 Camp Snoopy,789 CAMP SNOOPY,32.8779363,-117.2328973,"La Jolla, CA 92093, USA"
7910 Frost Street,7910 FROST STREET,32.8006811,-117.1544473,"7910 Frost St, San Diego, CA 92123, USA"
8006 Regents Road,8006 REGENTS ROAD,32.864564,-117.2222261,"8006 Regents Rd, San Diego, CA 92122, USA"
8018 Regents Road,8018 REGENTS ROAD,32.8646782,-117.2225472,"8018 Regents Rd, San Diego, CA 92122, USA"
8030 Regents Road,8030 REGENTS ROAD,32.864743,-117.2219521,"8030 Regents Rd, San Diego, CA 92122, USA"
8042 Regents Road,8042 REGENTS ROAD,32.8653258,-117.2226018,"8042 Regents Rd, San Diego, CA 92122, USA"
8046 Regents Road,8046 REGENTS ROAD,32.8651925,-117.2222033,"8046 Regents Rd, San Diego, CA 92122, USA"
8054 Regents Road,8054 REGENTS ROAD,32.8650677,-117.2226459,"8054 Regents Rd, San Diego, CA 92122, USA"
8066 Regents Road,8066 REGENTS ROAD,32.864761,-117.2227405,"Del Sol, 8066 Regents Rd, San Diego, CA 92122, USA"
8078 Regents Road,8078 REGENTS ROAD,32.864836,-117.2230206,"8078 Regents Rd, San Diego, CA 92122, USA"
8090 Regents Road,8090 REGENTS ROAD,32.8651509,-117.2229265,"8090 Regents Rd, San Diego, CA 92122, USA"
8098 Regents Road,8098 REGENTS ROAD,32.8653897,-117.2228791,"8098 Regents Rd, San Diego, CA 92122, USA"
8110 La Jolla Shores Drive,8110 LA JOLLA SHORES DRIVE,32.8540646,-117.2540791,"8110 La Jolla Shores Dr, La Jolla, CA 92037, USA"
8114 Regents Road,8114 REGENTS ROAD,32.8654321,-117.2231735,"8114 Regents Rd, San Diego, CA 92122, USA"
8126 Regents Road,8126 REGENTS ROAD,32.8651902,-117.2232723,"8126 Regents Rd, San Diego, CA 92122, USA"
8138 Regents Road,8138 REGENTS ROAD,32.8650082,-117.2233086,"8138 Regents Rd, San Diego, CA 92122, USA"
8150 Regents Road,8150 REGENTS ROAD,32.8652688,-117.2215706,"8150 Regents Rd, San Diego, CA 92122, USA"
8162 Regents Road,8162 REGENTS ROAD,32.865428,-117.2214774,"8162 Regents Rd, San Diego, CA 92122, USA"
8174 Regents Road,8174 REGENTS ROAD,32.8656074,-117.2213205,"8174 Regents Rd, San Diego, CA 92122, USA"
8186 Regents Road,8186 REGENTS ROAD,32.8658005,-117.2211537,"8186 Regents Rd, San Diego, CA 92122, USA"
8190 Regents Road,8190 REGENTS ROAD,32.8637415,-117.2224422,"8190 Regents Rd, San Diego, CA 92122, USA"
8202 Regents Road,8202 REGENTS ROAD,32.8654609,-117.2218859,"8202 Regents Rd, San Diego, CA 92122, USA"
8212 Regents Road,8212 REGENTS ROAD,32.8655293,-117.2221768,"8212 Regents Rd, San Diego, CA 92122, USA"
8222 Regents Road,8222 REGENTS ROAD,32.8657638,-117.2217079,"8222 Regents Rd, San Diego, CA 92122, USA"
8232 Regents Road,8232 REGENTS ROAD,32.8657686,-117.2219789,"8232 Regents Rd, San Diego, CA 92122, USA"
8242 Regents Road,8242 REGENTS ROAD,32.865781,-117.2226295,"8242 Regents Rd, San Diego, CA 92122, USA"
8252 Regents Road,8252 REGENTS ROAD,32.8657933,-117.2223978,"8252 Regents Rd, San Diego, CA 92122, USA"
8272 Regents Road,8272 REGENTS ROAD,32.8657827,-117.2229622,"8272 Regents Rd, San Diego, CA 92122, USA"
8282 Regents Road,8282 REGENTS ROAD,32.8657834,-117.2232714,"8282 Regents Rd, San Diego, CA 92122, USA"
8575 Gibbs Drive,8575 GIBBS DRIVE,32.8102739,-117.1432074,"8575 Gibbs Dr, San Diego, CA 92123, USA"
8665 Gibbs Drive,8665 GIBBS DRIVE,32.8102937,-117.1418937,"8665 Gibbs Dr, San Diego, CA 92123, USA"
8899 University Center Lane,8899 UNIVERSITY CENTER LANE,32.8696343,-117.2276054,"8899 University Center Ln, San Diego, CA 92122, USA"
8910 Villa La Jolla Drive,8910 VILLA LA JOLLA DRIVE,32.8703997,-117.2343061,"8910 Villa La Jolla Dr, La Jolla, CA 92037, USA"
8929 University Center Lane,8929 UNIVERSITY CENTER LANE,32.8697939,-117.2262357,"8929 University Center Ln, San Diego, CA 92122, USA"
8939 Villa La Jolla Drive,8939 VILLA LA JOLLA DRIVE,32.8707378,-117.2332897,"8939 Villa La Jolla Dr, La Jolla, CA 92037, USA"
8950 Villa La Jolla Drive,8950 VILLA LA JOLLA DRIVE,32.8711579,-117.2355656,"8950 Villa La Jolla Dr, La Jolla, CA 92037, USA"
8980 Villa La Jolla,8980 VILLA LA JOLLA,32.8712271,-117.2341773,"8980 Villa La Jolla Dr, La Jolla, CA 92037, USA"
910 Sycamore Avenue,910 SYCAMORE AVENUE,33.1594578,-117.2198825,"910 Sycamore Ave, Vista, CA 92084, USA"
9305 Lightwave Avenue,9305 LIGHTWAVE AVENUE,32.8278833,-117.1298762,"9305 Lightwave Ave, San Diego, CA 92123, USA"
9310 Redwood Drive,9310 REDWOOD DRIVE,32.8694594,-117.2474837,"Coast Apartments, 9310 Redwood Dr, La Jolla, CA 92037, USA"
9321 Discovery Way,9321 DISCOVERY WAY,32.8697915,-117.2476076,"Coast Apartments, 9321 Discovery Way, La Jolla, CA 92037, USA"
9331 Discovery Way,9331 DISCOVERY WAY,32.87016630000001,-117.2476366,"Coast Apartments, 9331 Discovery Way, La Jolla, CA 92037, USA"
9333 Genesee Avenue,9333 GENESEE AVENUE,32.8756896,-117.213356,"9333 Genesee Ave, San Diego, CA 92121, USA"
9334 Redwood Drive,9334 REDWOOD DRIVE,32.8697039,-117.2469616,"Coast Apartments, 9334 Redwood Dr, La Jolla, CA 92037, USA"
9344 Redwood Drive,9344 REDWOOD DRIVE,32.8699518,-117.2468656,"Coast Apartments, 9344 Redwood Dr, La Jolla, CA 92037, USA"
9350 Redwood Drive,9350 REDWOOD DRIVE,32.8701447,-117.246857,"Coast Apartments, 9350 Redwood Dr, La Jolla, CA 92037, USA"
9350A Coast Apartments,9350A COAST APARTMENTS,32.8697562,-117.2474028,"La Jolla, CA 92037, USA"
9355 Discovery Way,9355 DISCOVERY WAY,32.870513,-117.2475636,"Coast Apartments, 9355 Discovery Way, La Jolla, CA 92037, USA"
9366 Redwood Drive,9366 REDWOOD DRIVE,32.8703335,-117.2467453,"Coast Apartments, 9366 Redwood Dr, La Jolla, CA 92037, USA"
9369 Discovery Way,9369 DISCOVERY WAY,32.8707985,-117.2473454,"Coast Apartments, 9369 Discovery Way, La Jolla, CA 92037, USA"
9383 Discovery Way,9383 DISCOVERY WAY,32.8710202,-117.2470523,"Coast Apartments, 9383 Discovery Way, La Jolla, CA 92037, USA"
9388 Redwood Drive,9388 REDWOOD DRIVE,32.8705441,-117.2467368,"Coast Apartments, 9388 Redwood Dr, La Jolla, CA 92037, USA"
9393 Discovery Way,9393 DISCOVERY WAY,32.8709163,-117.2465964,"Coast Apartments, 9393 Discovery Way, La Jolla, CA 92037, USA"
9435 Modular Offices,9435 MODULAR OFFICES,32.881168,-117.2343605,"9500 Gilman Dr, La Jolla, CA 92093, USA"
9520 Towne Centre Drive,9520 TOWNE CENTRE DRIVE,32.8802912,-117.2090924,"9520 Towne Centre Dr, San Diego, CA 92121, USA"
9560 Towne Center Drive,9560 TOWNE CENTER DRIVE,32.8820618,-117.2100571,"9560 Towne Centre Dr, San Diego, CA 92121, USA"
9909 Mira Mesa Boulevard,9909 MIRA MESA BOULEVARD,32.9158468,-117.1130073,"9909 Mira Mesa Blvd, San Diego, CA 92131, USA"
Activism,ACTIVISM,32.881168,-117.2343605,"9500 Gilman Dr, La Jolla, CA 92093, USA"
Africa Hall,AFRICA HALL,32.886143,-117.2434803,"10002 Scholars Dr N, La Jolla, CA 92093, USA"
Alianza,ALIANZA,32.881168,-117.2343605,"9500 Gilman Dr, La Jolla, CA 92093, USA"
Altman Clinical Translational Research Institute,ALTMAN CLINICAL TRANSLATIONAL RESEARCH INSTITUTE,32.8789781,-117.2269864,"9452 Medical Ctr Dr, La Jolla, CA 92037, USA"
Amphitheater Kiosk,AMPHITHEATER KIOSK,32.8790251,-117.2325604,"9484 Innovation Ln, La Jolla, CA 92093, USA"
Amphitheater North Restrooms,AMPHITHEATER NORTH RESTROOMS,32.879957,-117.233248,"9488 Innovation Ln, La Jolla, CA 92093, USA"
Amphitheater South Restrooms,AMPHITHEATER SOUTH RESTROOMS,32.881168,-117.2343605,"9500 Gilman Dr, La Jolla, CA 92093, USA"
Anne Ratner Children's Eye Center,ANNE RATNER CHILDREN'S EYE CENTER,32.881168,-117.2343605,"9500 Gilman Dr, La Jolla, CA 92093, USA"
Anne Ratner Children's Eye Center Expansion,ANNE RATNER CHILDREN'S EYE CENTER EXPANSION,32.881168,-117.2343605,"9500 Gilman Dr, La Jolla, CA 92093, USA"
Applied Physics and Mathematics,APPLIED PHYSICS AND MATHEMATICS,32.8795424,-117.2411535,"San Diego, CA 92161, USA"
Arbor Drive Parking,ARBOR DRIVE PARKING,32.881168,-117.2343605,"9500 Gilman Dr, La Jolla, CA 92093, USA"
Arena,ARENA,32.881168,-117.2343605,"9500 Gilman Dr, La Jolla, CA 92093, USA"
Argo Hall,ARGO HALL,32.8745162,-117.2416218,"9257 S Scholars Dr, La Jolla, CA 92093, USA"
Artesa,ARTESA,32.881168,-117.2343605,"9500 Gilman Dr, La Jolla, CA 92093, USA"
Asante House East,ASANTE HOUSE EAST,32.881168,-117.2343605,"9500 Gilman Dr, La Jolla, CA 92093, USA"
Asante House Meeting Rooms,ASANTE HOUSE MEETING ROOMS,32.881168,-117.2343605,"9500 Gilman Dr, La Jolla, CA 92093, USA"
Asante House West,ASANTE HOUSE WEST,32.881168,-117.2343605,"9500 Gilman Dr, La Jolla, CA 92093, USA"
Asia Hall,ASIA HALL,32.8858003,-117.2434846,"9500 Gilman Dr, La Jolla, CA 92093, USA"
Astilla,ASTILLA,32.881168,-117.2343605,"9500 Gilman Dr, La Jolla, CA 92093, USA"
Athena Parking,ATHENA PARKING,32.8792952,-117.2217254,"Athena Parking Structure, Medical Ctr Dr, La Jolla, CA 92037, USA"
Atkinson Hall,ATKINSON HALL,32.8824069,-117.2348172,"Atkinson Hall, 9500 Gilman Dr, La Jolla, CA 92093, USA"
Atlantis Hall,ATLANTIS HALL,32.87385769999999,-117.2424379,"9211 S Scholars Dr, La Jolla, CA 92093, USA"
Audrey Geisel University House,AUDREY GEISEL UNIVERSITY HOUSE,32.881168,-117.2343605,"9500 Gilman Dr, La Jolla, CA 92093, USA"
Azad,AZAD,32.881168,-117.2343605,"9500 Gilman Dr, La Jolla, CA 92093, USA"
Bachman Place Parking,BACHMAN PLACE PARKING,32.7569014,-117.1645775,"Bachman Pl, San Diego, CA, USA"
Bannister Family House,BANNISTER FAMILY HOUSE,32.881168,-117.2343605,"9500 Gilman Dr, La Jolla, CA 92093, USA"
Bates Hall,BATES HALL,32.8839542,-117.23213,"9820 Justice Ln, La Jolla, CA 92093, USA"
Beagle Hall,BEAGLE HALL,32.874122,-117.2426029,"9217 S Scholars Dr, La Jolla, CA 92093, USA"
BFS Laboratory and Growing Rooms,BFS LABORATORY AND GROWING ROOMS,32.881168,-117.2343605,"9500 Gilman Dr, La Jolla, CA 92093, USA"
BFS Main Building,BFS MAIN BUILDING,32.881168,-117.2343605,"9500 Gilman Dr, La Jolla, CA 92093, USA"
Biology Building,BIOLOGY BUILDING,32.881168,-117.2343605,"9500 Gilman Dr, La Jolla, CA 92093, USA"
Biomedical Sciences Building,BIOMEDICAL SCIENCES BUILDING,32.8765264,-117.2361206,"3120 Biomedical Sciences Wy, La Jolla, CA 92093, USA"
Birch Aquarium at Scripps,BIRCH AQUARIUM AT SCRIPPS,32.8658136,-117.250639,"2300 Expedition Way, La Jolla, CA 92037, USA"
Birch Aquarium Booth,BIRCH AQUARIUM BOOTH,32.8658136,-117.250639,"2300 Expedition Way, La Jolla, CA 92037, USA"
Birch Aquarium Education Trailer,BIRCH AQUARIUM EDUCATION TRAILER,32.8658136,-117.250639,"2300 Expedition Way, La Jolla, CA 92037, USA"
Black Apartments,BLACK APARTMENTS,32.881168,-117.2343605,"9500 Gilman Dr, La Jolla, CA 92093, USA"
Black's Beach Restrooms,BLACK'S BEACH RESTROOMS,32.881168,-117.2343605,"9500 Gilman Dr, La Jolla, CA 92093, USA"
Black's Beach Storage,BLACK'S BEACH STORAGE,32.881168,-117.2343605,"9500 Gilman Dr, La Jolla, CA 92093, USA"
Blackhorse,BLACKHORSE,32.881168,-117.2343605,"9500 Gilman Dr, La Jolla, CA 92093, USA"
Blake Hall,BLAKE HALL,32.8749765,-117.2417333,"Blake Hall, San Diego, CA 92161, USA"
Bonner Hall,BONNER HALL,32.8754094,-117.2403292,"Bonner Hall, San Diego, CA 92161, USA"
Bravery,BRAVERY,32.881168,-117.2343605,"9500 Gilman Dr, La Jolla, CA 92093, USA"
Brennan Apartments,BRENNAN APARTMENTS,32.881168,-117.2343605,"9500 Gilman Dr, La Jolla, CA 92093, USA"
Brian C. Malk Hall,BRIAN C. MALK HALL,32.881168,-117.2343605,"9500 Gilman Dr, La Jolla, CA 92093, USA"
Brisa,BRISA,32.881168,-117.2343605,"9500 Gilman Dr, La Jolla, CA 92093, USA"
Brown Hall,BROWN HALL,32.8834737,-117.2322678,"Brown Hall, Justice Ln, La Jolla, CA 92093, USA"
Cafe Ventanas,CAFE VENTANAS,32.8860312,-117.242574,"10006 Scholars Dr N, La Jolla, CA 92093, USA"
Cala,CALA,32.881168,-117.2343605,"9500 Gilman Dr, La Jolla, CA 92093, USA"
Camelot,CAMELOT,32.881168,-117.2343605,"9500 Gilman Dr, La Jolla, CA 92093, USA"
Camp Snoopy Dean's Residence,CAMP SNOOPY DEAN'S RESIDENCE,32.8779363,-117.2328973,"La Jolla, CA 92093, USA"
Camp Snoopy Residence Hall 703,CAMP SNOOPY RESIDENCE HALL 703,32.8779363,-117.2328973,"La Jolla, CA 92093, USA"
Camp Snoopy Residence Hall 704,CAMP SNOOPY RESIDENCE HALL 704,32.8779363,-117.2328973,"La Jolla, CA 92093, USA"
Camp Snoopy Residence Hall 705,CAMP SNOOPY RESIDENCE HALL 705,32.8779363,-117.2328973,"La Jolla, CA 92093, USA"
Camp Snoopy Residence Hall 706,CAMP SNOOPY RESIDENCE HALL 706,32.8779363,-117.2328973,"La Jolla, CA 92093, USA"
Camp Snoopy Residence Hall 707,CAMP SNOOPY RESIDENCE HALL 707,32.8779363,-117.2328973,"La Jolla, CA 92093, USA"
Camp Snoopy Residence Hall 708,CAMP SNOOPY RESIDENCE HALL 708,32.8779363,-117.2328973,"La Jolla, CA 92093, USA"
Camp Snoopy Residence Hall 709,CAMP SNOOPY RESIDENCE HALL 709,32.8328112,-117.2712717,"La Jolla, San Diego, CA, USA"
Camp Snoopy Residence Hall 710,CAMP SNOOPY RESIDENCE HALL 710,32.8779363,-117.2328973,"La Jolla, CA 92093, USA"
Camp Snoopy Student Services,CAMP SNOOPY STUDENT SERVICES,32.8779363,-117.2328973,"La Jolla, CA 92093, USA"
Campus Emergency Services Building,CAMPUS EMERGENCY SERVICES BUILDING,32.881168,-117.2343605,"9500 Gilman Dr, La Jolla, CA 92093, USA"
Campus Point Parking East,CAMPUS POINT PARKING EAST,32.881168,-117.2343605,"9500 Gilman Dr, La Jolla, CA 92093, USA"
Campus Point Parking West,CAMPUS POINT PARKING WEST,32.8328112,-117.2712717,"La Jolla, San Diego, CA, USA"
Campus Services Complex - Building A,CAMPUS SERVICES COMPLEX   BUILDING A,32.8822204,-117.2295347,"Campus Services Complex - Building A, Greenhouse Ln, La Jolla, CA 92093, USA"
Campus Services Complex - Building C,CAMPUS SERVICES COMPLEX   BUILDING C,32.8830737,-117.2297184,"Campus Services Complex - Bldg C, Greenhouse Ln, La Jolla, CA 92093, USA"
Campus Services Complex - Building D,CAMPUS SERVICES COMPLEX   BUILDING D,32.8837256,-117.2297184,"Campus Services Complex - Bldg D, 9821 Greenhouse Ln, La Jolla, CA 92093, USA"
Campus Services Complex - Building H,CAMPUS SERVICES COMPLEX   BUILDING H,32.8835243,-117.2295091,"Campus Services Complex - Building H, 9817 Greenhouse Ln, La Jolla, CA 92093, USA"
Campus Services Complex - Trailer 5,CAMPUS SERVICES COMPLEX   TRAILER 5,32.8839901,-117.2292864,"Greenhouse Ln, La Jolla, CA 92093, USA"
Canyon Vista,CANYON VISTA,32.8839947,-117.2332494,"9821 Equality Ln, La Jolla, CA 92093, USA"
Canyonview Aquatic and Climbing Wall Facility,CANYONVIEW AQUATIC AND CLIMBING WALL FACILITY,32.881168,-117.2343605,"9500 Gilman Dr, La Jolla, CA 92093, USA"
Canyonview Filter Facility,CANYONVIEW FILTER FACILITY,32.8805258,-117.2318085,"3302 Voigt Dr, La Jolla, CA 92093, USA"
Canyonview Rec/Athletics Administration,CANYONVIEW REC/ATHLETICS ADMINISTRATION,32.8805258,-117.2318085,"3302 Voigt Dr, La Jolla, CA 92093, USA"
Capa,CAPA,32.881168,-117.2343605,"9500 Gilman Dr, La Jolla, CA 92093, USA"
Career Services Center,CAREER SERVICES CENTER,32.8783855,-117.2379298,"9421 Mandeville Ln, La Jolla, CA 92093, USA"
Catalyst,CATALYST,32.881168,-117.2343605,"9500 Gilman Dr, La Jolla, CA 92093, USA"
Cellular and Molecular Medicine East,CELLULAR AND MOLECULAR MEDICINE EAST,32.8763691,-117.2376781,"Cellular and Molecular Medicine East (Cmme), San Diego, CA 92161, USA"
Center for Coastal Studies,CENTER FOR COASTAL STUDIES,32.8663539,-117.2539992,"2130 Naga Way, La Jolla, CA 92037, USA"
Center for Memory and Recording Research,CENTER FOR MEMORY AND RECORDING RESEARCH,32.88049,-117.2354682,"3164 Matthews Ln, La Jolla, CA 92093, USA"
Center for Neural Circuits and Behavior,CENTER FOR NEURAL CIRCUITS AND BEHAVIOR,32.8757471,-117.2385281,"9375 Gilman Dr, La Jolla, CA 92093, USA"
Center for Novel Therapeutics,CENTER FOR NOVEL THERAPEUTICS,32.8769868,-117.2208431,"9310 Athena Cir, La Jolla, CA 92037, USA"
Center for Translational Imaging and Precision Medicine,CENTER FOR TRANSLATIONAL IMAGING AND PRECISION MEDICINE,32.8790587,-117.2204435,"9427 Health Sciences Dr, La Jolla, CA 92037, USA"
Center Hall,CENTER HALL,32.8778021,-117.2372517,"Center Hall, San Diego, CA 92161, USA"
Central Research Services,CENTRAL RESEARCH SERVICES,32.881168,-117.2343605,"9500 Gilman Dr, La Jolla, CA 92093, USA"
Central Utilities Plant,CENTRAL UTILITIES PLANT,32.87419570000001,-117.2394694,"9239 Herbert York Ln, La Jolla, CA 92093, USA"
Central Utilities Plant Expansion,CENTRAL UTILITIES PLANT EXPANSION,32.87419570000001,-117.2394694,"9239 Herbert York Ln, La Jolla, CA 92093, USA"
Challenger Hall,CHALLENGER HALL,32.8741459,-117.2423273,"9219 S Scholars Dr, La Jolla, CA 92093, USA"
Charles David Keeling Apartments 1,CHARLES DAVID KEELING APARTMENTS 1,32.8742844,-117.2433087,"Theatre District Dr, La Jolla, CA 92161, USA"
Charles David Keeling Apartments 2,CHARLES DAVID KEELING APARTMENTS 2,32.8742844,-117.2433087,"Theatre District Dr, La Jolla, CA 92161, USA"
Charles David Keeling Apartments 3,CHARLES DAVID KEELING APARTMENTS 3,32.8742844,-117.2433087,"Theatre District Dr, La Jolla, CA 92161, USA"
Che Cafe,CHE CAFE,32.872927,-117.2393161,"3035 Theatre District Dr, La Jolla, CA 92093, USA"
Clinical Research Facility,CLINICAL RESEARCH FACILITY,32.8745206,-117.23422,"3189 Biomedical Sciences Wy, La Jolla, CA 92093, USA"
Clinical Teaching Facility,CLINICAL TEACHING FACILITY,32.881168,-117.2343605,"9500 Gilman Dr, La Jolla, CA 92093, USA"
Coalition,COALITION,32.881168,-117.2343605,"9500 Gilman Dr, La Jolla, CA 92093, USA"
Cognitive Science Building,COGNITIVE SCIENCE BUILDING,32.8805813,-117.2395409,"9500 Gilman Dr, La Jolla, CA 92037, USA"
Collective,COLLECTIVE,32.881168,-117.2343605,"9500 Gilman Dr, La Jolla, CA 92093, USA"
Communication Building,COMMUNICATION BUILDING,32.8814907,-117.2402833,"3010 Exploration Dr, La Jolla, CA 92093, USA"
Communications Building 1,COMMUNICATIONS BUILDING 1,32.8814907,-117.2402833,"3010 Exploration Dr, La Jolla, CA 92093, USA"
Communications Building 2,COMMUNICATIONS BUILDING 2,32.8814907,-117.2402833,"3010 Exploration Dr, La Jolla, CA 92093, USA"
Computer Science and Engineering Building,COMPUTER SCIENCE AND ENGINEERING BUILDING,32.88180060000001,-117.2335235,"3235 Voigt Dr, La Jolla, CA 92093, USA"
Conrad Prebys Music Center,CONRAD PREBYS MUSIC CENTER,32.8778953,-117.2347713,"Conrad Prebys Music Center, San Diego, CA 92161, USA"
Copley International Conference Center,COPLEY INTERNATIONAL CONFERENCE CENTER,32.8850016,-117.2412938,"9875 International Ln, La Jolla, CA 92093, USA"
Corallina,CORALLINA,32.881168,-117.2343605,"9500 Gilman Dr, La Jolla, CA 92093, USA"
CPD Modular Office 1,CPD MODULAR OFFICE 1,32.881168,-117.2343605,"9500 Gilman Dr, La Jolla, CA 92093, USA"
CPD Modular Office 2,CPD MODULAR OFFICE 2,32.881168,-117.2343605,"9500 Gilman Dr, La Jolla, CA 92093, USA"
CPD Modular Office 3,CPD MODULAR OFFICE 3,32.881168,-117.2343605,"9500 Gilman Dr, La Jolla, CA 92093, USA"
Crest Chateau,CREST CHATEAU,32.881168,-117.2343605,"9500 Gilman Dr, La Jolla, CA 92093, USA"
Cresta,CRESTA,32.881168,-117.2343605,"9500 Gilman Dr, La Jolla, CA 92093, USA"
CSC Shops,CSC SHOPS,32.881168,-117.2343605,"9500 Gilman Dr, La Jolla, CA 92093, USA"
Cuzco House East,CUZCO HOUSE EAST,32.8846278,-117.241845,"Cuzco House, Scholars Dr N, La Jolla, CA 92093, USA"
Cuzco House West,CUZCO HOUSE WEST,32.8846278,-117.241845,"Cuzco House, Scholars Dr N, La Jolla, CA 92093, USA"
Deep Sea Drilling Building C,DEEP SEA DRILLING BUILDING C,32.8670345,-117.2513582,"2225 Downwind Way, La Jolla, CA 92037, USA"
Deep Sea Drilling East,DEEP SEA DRILLING EAST,32.8673733,-117.2511316,"2245, La Jolla, CA 92037, USA"
Deep Sea Drilling West,DEEP SEA DRILLING WEST,32.8675703,-117.2517554,"2215 Downwind Way, La Jolla, CA 92037, USA"
Design and Innovation Building,DESIGN AND INNOVATION BUILDING,32.8794117,-117.2322377,"9510 Innovation Ln, La Jolla, CA 92093, USA"
Dialogue,DIALOGUE,32.881168,-117.2343605,"9500 Gilman Dr, La Jolla, CA 92093, USA"
Discovery Hall,DISCOVERY HALL,32.8740494,-117.2419356,"9225 S Scholars Dr, La Jolla, CA 92093, USA"
Douglas Apartments,DOUGLAS APARTMENTS,32.881168,-117.2343605,"9500 Gilman Dr, La Jolla, CA 92093, USA"
Early Childhood Education Center A,EARLY CHILDHOOD EDUCATION CENTER A,32.8738894,-117.2232901,"3815 Mesa Pk Ct, La Jolla, CA 92093, USA"
Early Childhood Education Center B,EARLY CHILDHOOD EDUCATION CENTER B,32.87392,-117.22287,"3835 Mesa Pk Ct, La Jolla, CA 92093, USA"
Early Childhood Education Center C,EARLY CHILDHOOD EDUCATION CENTER C,32.87369,-117.2234,"3823 Mesa Pk Ct, La Jolla, CA 92093, USA"
Early Childhood Education Center D,EARLY CHILDHOOD EDUCATION CENTER D,32.87367,-117.22287,"3833 Mesa Pk Ct, La Jolla, CA 92093, USA"
Earth Hall,EARTH HALL,32.881168,-117.2343605,"9500 Gilman Dr, La Jolla, CA 92093, USA"
East Campus Medical Center Central Plant,EAST CAMPUS MEDICAL CENTER CENTRAL PLANT,32.8773757,-117.2250874,"9470 Medical Ctr Dr, La Jolla, CA 92037, USA"
East Campus Office Building,EAST CAMPUS OFFICE BUILDING,32.8765479,-117.2275567,"East Campus Office Building, 9444 Medical Ctr Dr, La Jolla, CA 92037, USA"
East Campus Parking,EAST CAMPUS PARKING,32.8823784,-117.222782,"La Jolla, CA 92037, USA"
East Campus Substation,EAST CAMPUS SUBSTATION,32.8823784,-117.222782,"La Jolla, CA 92037, USA"
East Campus Utilities Plant,EAST CAMPUS UTILITIES PLANT,32.8803106,-117.221777,"East Campus Utility Plant, 9691 Campus Point Dr, La Jolla, CA 92037, USA"
East Campus Utilities Plant Expansion,EAST CAMPUS UTILITIES PLANT EXPANSION,32.8803106,-117.221777,"East Campus Utility Plant, 9691 Campus Point Dr, La Jolla, CA 92037, USA"
East Environmental Bunker,EAST ENVIRONMENTAL BUNKER,32.881168,-117.2343605,"9500 Gilman Dr, La Jolla, CA 92093, USA"
East Tower,EAST TOWER,32.881168,-117.2343605,"9500 Gilman Dr, La Jolla, CA 92093, USA"
Eckart Building,ECKART BUILDING,32.8671432,-117.2525847,"8755 Biological Grade, La Jolla, CA 92037, USA"
Economics Building,ECONOMICS BUILDING,32.881168,-117.2343605,"9500 Gilman Dr, La Jolla, CA 92093, USA"
Eelgrass,EELGRASS,32.881168,-117.2343605,"9500 Gilman Dr, La Jolla, CA 92093, USA"
EHS Emergency Container - Canyonview,EHS EMERGENCY CONTAINER   CANYONVIEW,32.8805258,-117.2318085,"3302 Voigt Dr, La Jolla, CA 92093, USA"
EHS Emergency Container - East Campus,EHS EMERGENCY CONTAINER   EAST CAMPUS,32.8823784,-117.222782,"La Jolla, CA 92037, USA"
EHS Emergency Container - Eucalyptus Point,EHS EMERGENCY CONTAINER   EUCALYPTUS POINT,32.8817496,-117.2400316,"Eucalyptus Point, San Diego, CA 92161, USA"
EHS Emergency Container - Galbraith Hall,EHS EMERGENCY CONTAINER   GALBRAITH HALL,32.8737102,-117.2409723,"Galbraith Hall, San Diego, CA 92161, USA"
EHS Emergency Container - Gliderport,EHS EMERGENCY CONTAINER   GLIDERPORT,32.881168,-117.2343605,"9500 Gilman Dr, La Jolla, CA 92093, USA"
EHS Emergency Container - Mesa Housing,EHS EMERGENCY CONTAINER   MESA HOUSING,32.8743495,-117.2205048,"9260 C Mesa, La Jolla, CA 92037, USA"
EHS Emergency Container - Muir Fields,EHS EMERGENCY CONTAINER   MUIR FIELDS,32.876944,-117.2428228,"San Diego, CA 92161, USA"
EHS Emergency Container - North Campus,EHS EMERGENCY CONTAINER   NORTH CAMPUS,32.8886693,-117.2404211,"La Jolla, CA 92093, USA"
EHS Emergency Container - Revelle,EHS EMERGENCY CONTAINER   REVELLE,32.8753781,-117.2418523,"9500 Gilman Dr, La Jolla, CA 92093, USA"
EHS Emergency Container - RIMAC,EHS EMERGENCY CONTAINER   RIMAC,32.8851041,-117.2404977,"9860 Hopkins Dr, La Jolla, CA 92093, USA"
EHS Emergency Container - School of Medicine,EHS EMERGENCY CONTAINER   SCHOOL OF MEDICINE,32.8746036,-117.2359809,"9500 Gilman Dr, La Jolla, CA 92093, USA"
EHS Emergency Container - SIO,EHS EMERGENCY CONTAINER   SIO,32.8681401,-117.2503233,"8622 Kennel Way, La Jolla, CA 92037, USA"
EHS Emergency Container - Student Health,EHS EMERGENCY CONTAINER   STUDENT HEALTH,32.881168,-117.2343605,"9500 Gilman Dr, La Jolla, CA 92093, USA"
EHS Emergency Container - Visual Arts,EHS EMERGENCY CONTAINER   VISUAL ARTS,32.8791565,-117.2341341,"9475 Russell Ln, La Jolla, CA 92093, USA"
Electric Shop,ELECTRIC SHOP,32.8825795,-117.2294088,"9784 Campus Services Wy, La Jolla, CA 92093, USA"
Electromagnetics Research Facility,ELECTROMAGNETICS RESEARCH FACILITY,32.881168,-117.2343605,"9500 Gilman Dr, La Jolla, CA 92093, USA"
Elliott Field Station Bloor Building,ELLIOTT FIELD STATION BLOOR BUILDING,32.8328112,-117.2712717,"La Jolla, San Diego, CA, USA"
Elliott Field Station Canine Building 4 (East),ELLIOTT FIELD STATION CANINE BUILDING 4,32.881168,-117.2343605,"9500 Gilman Dr, La Jolla, CA 92093, USA"
Elliott Field Station Canine Building 5 (West),ELLIOTT FIELD STATION CANINE BUILDING 5,32.8328112,-117.2712717,"La Jolla, San Diego, CA, USA"
Elliott Field Station J1 (West),ELLIOTT FIELD STATION J1,32.8932681,-117.1049612,"10201 Pomerado Rd, San Diego, CA 92131, USA"
Elliott Field Station J2 (East),ELLIOTT FIELD STATION J2,32.8932681,-117.1049612,"10201 Pomerado Rd, San Diego, CA 92131, USA"
Elliott Field Station Quonset,ELLIOTT FIELD STATION QUONSET,32.8932681,-117.1049612,"10201 Pomerado Rd, San Diego, CA 92131, USA"
Elliott Field Station Rabbit Building 1 (East),ELLIOTT FIELD STATION RABBIT BUILDING 1,32.8328112,-117.2712717,"La Jolla, San Diego, CA, USA"
Elliott Field Station Rabbit Building 2 (West),ELLIOTT FIELD STATION RABBIT BUILDING 2,32.881168,-117.2343605,"9500 Gilman Dr, La Jolla, CA 92093, USA"
Elliott Field Station Research Laboratory,ELLIOTT FIELD STATION RESEARCH LABORATORY,32.8328112,-117.2712717,"La Jolla, San Diego, CA, USA"
Elliott Field Station SOM Trailer,ELLIOTT FIELD STATION SOM TRAILER,32.8328112,-117.2712717,"La Jolla, San Diego, CA, USA"
Elliott Field Station Storehouse,ELLIOTT FIELD STATION STOREHOUSE,32.8328112,-117.2712717,"La Jolla, San Diego, CA, USA"
Elliott Field Station Trailer 1,ELLIOTT FIELD STATION TRAILER 1,32.8932681,-117.1049612,"10201 Pomerado Rd, San Diego, CA 92131, USA"
Elliott Field Station Trailer 4,ELLIOTT FIELD STATION TRAILER 4,32.8932681,-117.1049612,"10201 Pomerado Rd, San Diego, CA 92131, USA"
Elliott Field Station Trailer 5,ELLIOTT FIELD STATION TRAILER 5,32.8932681,-117.1049612,"10201 Pomerado Rd, San Diego, CA 92131, USA"
Emergency Department Addition,EMERGENCY DEPARTMENT ADDITION,32.881168,-117.2343605,"9500 Gilman Dr, La Jolla, CA 92093, USA"
Empower,EMPOWER,32.881168,-117.2343605,"9500 Gilman Dr, La Jolla, CA 92093, USA"
Engineering Building Unit II,ENGINEERING BUILDING UNIT II,32.8811569,-117.2330257,"3245 Voigt Dr, La Jolla, CA 92093, USA"
Environmental Management Facility,ENVIRONMENTAL MANAGEMENT FACILITY,32.8842982,-117.2296542,"9835 Greenhouse Ln, La Jolla, CA 92093, USA"
Environmental Management Facility 2,ENVIRONMENTAL MANAGEMENT FACILITY 2,32.8842982,-117.2296542,"9835 Greenhouse Ln, La Jolla, CA 92093, USA"
Epstein Family Amphitheater,EPSTEIN FAMILY AMPHITHEATER,32.8792506,-117.233073,"9480 Innovation Ln, La Jolla, CA 92093, USA"
ERC Administration North,ERC ADMINISTRATION NORTH,32.88613280000001,-117.2420287,"La Jolla, CA 92093, USA"
ERC Administration South,ERC ADMINISTRATION SOUTH,32.88613280000001,-117.2420287,"La Jolla, CA 92093, USA"
ERC Laundry East,ERC LAUNDRY EAST,32.8328112,-117.2712717,"La Jolla, San Diego, CA, USA"
ERC Laundry South,ERC LAUNDRY SOUTH,32.8328112,-117.2712717,"La Jolla, San Diego, CA, USA"
ERC Pump House,ERC PUMP HOUSE,32.881168,-117.2343605,"9500 Gilman Dr, La Jolla, CA 92093, USA"
ESEC Office Trailer North,ESEC OFFICE TRAILER NORTH,32.881168,-117.2343605,"9500 Gilman Dr, La Jolla, CA 92093, USA"
ESEC Office Trailer South,ESEC OFFICE TRAILER SOUTH,32.881168,-117.2343605,"9500 Gilman Dr, La Jolla, CA 92093, USA"
ESEC Office Trailer West,ESEC OFFICE TRAILER WEST,32.8328112,-117.2712717,"La Jolla, San Diego, CA, USA"
Estancia La Jolla,ESTANCIA LA JOLLA,32.8849021,-117.2442705,"Estancia La Jolla, San Diego, CA 92037, USA"
Eucalyptus Point,EUCALYPTUS POINT,32.8814919,-117.2394106,"Eucalyptus Point, San Diego, CA 92161, USA"
Europe Hall,EUROPE HALL,32.8854422,-117.2434779,"9922 Scholars Dr N, La Jolla, CA 92093, USA"
Evergreen,EVERGREEN,32.881168,-117.2343605,"9500 Gilman Dr, La Jolla, CA 92093, USA"
Exchange,EXCHANGE,32.881168,-117.2343605,"9500 Gilman Dr, La Jolla, CA 92093, USA"
Extended Studies and Public Programs - Building A,EXTENDED STUDIES AND PUBLIC PROGRAMS   BUILDING A,32.881168,-117.2343605,"9500 Gilman Dr, La Jolla, CA 92093, USA"
Extended Studies and Public Programs - Building B,EXTENDED STUDIES AND PUBLIC PROGRAMS   BUILDING B,32.881168,-117.2343605,"9500 Gilman Dr, La Jolla, CA 92093, USA"
Extended Studies and Public Programs - Building C,EXTENDED STUDIES AND PUBLIC PROGRAMS   BUILDING C,32.881168,-117.2343605,"9500 Gilman Dr, La Jolla, CA 92093, USA"
Extended Studies and Public Programs - Building C Addition,EXTENDED STUDIES AND PUBLIC PROGRAMS   BUILDING C ADDITION,32.881168,-117.2343605,"9500 Gilman Dr, La Jolla, CA 92093, USA"
Extended Studies and Public Programs - Building D,EXTENDED STUDIES AND PUBLIC PROGRAMS   BUILDING D,32.8784253,-117.2311977,"Building D, Matthews Apartments, 747, La Jolla, CA 92093, USA"
Extended Studies and Public Programs - Building E,EXTENDED STUDIES AND PUBLIC PROGRAMS   BUILDING E,32.881168,-117.2343605,"9500 Gilman Dr, La Jolla, CA 92093, USA"
Extended Studies and Public Programs - Building F,EXTENDED STUDIES AND PUBLIC PROGRAMS   BUILDING F,32.881168,-117.2343605,"9500 Gilman Dr, La Jolla, CA 92093, USA"
Extended Studies and Public Programs - Building G,EXTENDED STUDIES AND PUBLIC PROGRAMS   BUILDING G,32.881168,-117.2343605,"9500 Gilman Dr, La Jolla, CA 92093, USA"
Extended Studies and Public Programs - Building H,EXTENDED STUDIES AND PUBLIC PROGRAMS   BUILDING H,32.881168,-117.2343605,"9500 Gilman Dr, La Jolla, CA 92093, USA"
Extended Studies and Public Programs - Building J,EXTENDED STUDIES AND PUBLIC PROGRAMS   BUILDING J,32.881168,-117.2343605,"9500 Gilman Dr, La Jolla, CA 92093, USA"
Extended Studies and Public Programs - Building K,EXTENDED STUDIES AND PUBLIC PROGRAMS   BUILDING K,32.881168,-117.2343605,"9500 Gilman Dr, La Jolla, CA 92093, USA"
Extended Studies and Public Programs - Building L,EXTENDED STUDIES AND PUBLIC PROGRAMS   BUILDING L,32.881168,-117.2343605,"9500 Gilman Dr, La Jolla, CA 92093, USA"
Extended Studies and Public Programs - Building M,EXTENDED STUDIES AND PUBLIC PROGRAMS   BUILDING M,32.881168,-117.2343605,"9500 Gilman Dr, La Jolla, CA 92093, USA"
Extended Studies and Public Programs - Building N,EXTENDED STUDIES AND PUBLIC PROGRAMS   BUILDING N,32.881168,-117.2343605,"9500 Gilman Dr, La Jolla, CA 92093, USA"
Extended Studies and Public Programs - Building O - East,EXTENDED STUDIES AND PUBLIC PROGRAMS   BUILDING O   EAST,32.8328112,-117.2712717,"La Jolla, San Diego, CA, USA"
Extended Studies and Public Programs - Building O - West,EXTENDED STUDIES AND PUBLIC PROGRAMS   BUILDING O   WEST,32.881168,-117.2343605,"9500 Gilman Dr, La Jolla, CA 92093, USA"
Extended Studies and Public Programs - Building P,EXTENDED STUDIES AND PUBLIC PROGRAMS   BUILDING P,32.881168,-117.2343605,"9500 Gilman Dr, La Jolla, CA 92093, USA"
Extended Studies and Public Programs - Building X,EXTENDED STUDIES AND PUBLIC PROGRAMS   BUILDING X,32.881168,-117.2343605,"9500 Gilman Dr, La Jolla, CA 92093, USA"
Extended Studies and Public Programs - Building Y,EXTENDED STUDIES AND PUBLIC PROGRAMS   BUILDING Y,32.881168,-117.2343605,"9500 Gilman Dr, La Jolla, CA 92093, USA"
Extended Studies and Public Programs - Building Z,EXTENDED STUDIES AND PUBLIC PROGRAMS   BUILDING Z,32.881168,-117.2343605,"9500 Gilman Dr, La Jolla, CA 92093, USA"
Faculty Club Expansion,FACULTY CLUB EXPANSION,32.879255,-117.239585,"9500 Gilman Drive MC 0121, 3035 Muir Ln, La Jolla, CA 92093, USA"
Fir,FIR,32.881168,-117.2343605,"9500 Gilman Dr, La Jolla, CA 92093, USA"
Fireside Lounge,FIRESIDE LOUNGE,32.881168,-117.2343605,"9500 Gilman Dr, La Jolla, CA 92093, USA"
Fleet Services,FLEET SERVICES,32.8328112,-117.2712717,"La Jolla, San Diego, CA, USA"
Foodworx,FOODWORX,32.878797,-117.230439,"9457 Innovation Ln, La Jolla, CA 92093, USA"
Foodworx Dining Room,FOODWORX DINING ROOM,32.878797,-117.230439,"9457 Innovation Ln, La Jolla, CA 92093, USA"
Frankfurter Hall,FRANKFURTER HALL,32.8846291,-117.2329765,"9851 Equality Ln, La Jolla, CA 92093, USA"
Franklin Antonio Hall,FRANKLIN ANTONIO HALL,32.8835046,-117.2350009,"Franklin Antonio Hall, San Diego, CA 92093, USA"
Fred N. Spiess Hall,FRED N. SPIESS HALL,32.881168,-117.2343605,"9500 Gilman Dr, La Jolla, CA 92093, USA"
Freedom,FREEDOM,32.881168,-117.2343605,"9500 Gilman Dr, La Jolla, CA 92093, USA"
Frog House,FROG HOUSE,32.881168,-117.2343605,"9500 Gilman Dr, La Jolla, CA 92093, USA"
Galathea Hall,GALATHEA HALL,32.8738934,-117.2416565,"9223 S Scholars Dr, La Jolla, CA 92093, USA"
Galbraith Hall,GALBRAITH HALL,32.8737102,-117.2409723,"Galbraith Hall, San Diego, CA 92161, USA"
Geisel Library,GEISEL LIBRARY,32.881178,-117.2375923,"9701 Hopkins Dr, La Jolla, CA 92093, USA"
Geneva Hall East,GENEVA HALL EAST,32.8855413,-117.2420642,"9956 International Ln, La Jolla, CA 92093, USA"
Geneva Hall West,GENEVA HALL WEST,32.8328112,-117.2712717,"La Jolla, San Diego, CA, USA"
Geodesic Dome 1,GEODESIC DOME 1,32.881168,-117.2343605,"9500 Gilman Dr, La Jolla, CA 92093, USA"
Geodesic Dome 2,GEODESIC DOME 2,32.881168,-117.2343605,"9500 Gilman Dr, La Jolla, CA 92093, USA"
George Palade Laboratories for Cellular and Molecular Medicine,GEORGE PALADE LABORATORIES FOR CELLULAR AND MOLECULAR MEDICINE,32.876364,-117.2384095,"9450 Gilman Dr, La Jolla, CA 92093, USA"
Gildred Latin American Studies Building,GILDRED LATIN AMERICAN STUDIES BUILDING,32.8852814,-117.2410827,"9909 International Ln, La Jolla, CA 92093, USA"
Gilman Parking,GILMAN PARKING,32.8776194,-117.2336633,"252 Russell Ln, La Jolla, CA 92093, USA"
Goldberg Apartments,GOLDBERG APARTMENTS,32.881168,-117.2343605,"9500 Gilman Dr, La Jolla, CA 92093, USA"
Goody's Place,GOODY'S PLACE,32.881168,-117.2343605,"9500 Gilman Dr, La Jolla, CA 92093, USA"
Grassroots,GRASSROOTS,32.881168,-117.2343605,"9500 Gilman Dr, La Jolla, CA 92093, USA"
Great Hall,GREAT HALL,32.883903,-117.242135,"9500 Gilman Dr, La Jolla, CA 92093, USA"
Greenhouse 1,GREENHOUSE 1,32.881168,-117.2343605,"9500 Gilman Dr, La Jolla, CA 92093, USA"
Greenhouse 2,GREENHOUSE 2,32.881168,-117.2343605,"9500 Gilman Dr, La Jolla, CA 92093, USA"
Greenhouse 3,GREENHOUSE 3,32.88573,-117.22979,"9883 Greenhouse Ln, La Jolla, CA 92093, USA"
Greenhouse 4,GREENHOUSE 4,32.881168,-117.2343605,"9500 Gilman Dr, La Jolla, CA 92093, USA"
Greenwich Drive Parking,GREENWICH DRIVE PARKING,32.8539707,-117.1843277,"Greenwich Dr, San Diego, CA 92122, USA"
Guava,GUAVA,32.881168,-117.2343605,"9500 Gilman Dr, La Jolla, CA 92093, USA"
Guava Extension,GUAVA EXTENSION,32.8742816,-117.2342928,"3187 Biomedical Sciences Wy, La Jolla, CA 92093, USA"
Halicioglu Data Science Institute,HALICIOGLU DATA SCIENCE INSTITUTE,32.8805631,-117.2338242,"3234 Matthews Ln, La Jolla, CA 92093, USA"
Hamilton Glaucoma and Jacobs Retina Center,HAMILTON GLAUCOMA AND JACOBS RETINA CENTER,32.8794862,-117.2229646,"9415 Campus Point Dr, La Jolla, CA 92037, USA"
Harlan Hall,HARLAN HALL,32.8848017,-117.2323582,"9860 Justice Ln, La Jolla, CA 92093, USA"
HDH Emergency Container - Brown Hall,HDH EMERGENCY CONTAINER   BROWN HALL,32.8834737,-117.2322678,"Brown Hall, Justice Ln, La Jolla, CA 92093, USA"
HDH Emergency Container - Camp Snoopy Residence Halls,HDH EMERGENCY CONTAINER   CAMP SNOOPY RESIDENCE HALLS,32.8779363,-117.2328973,"La Jolla, CA 92093, USA"
HDH Emergency Container - Coast Apartments,HDH EMERGENCY CONTAINER   COAST APARTMENTS,32.8697562,-117.2474028,"La Jolla, CA 92037, USA"
HDH Emergency Container - Foodworx,HDH EMERGENCY CONTAINER   FOODWORX,32.878797,-117.230439,"9457 Innovation Ln, La Jolla, CA 92093, USA"
HDH Emergency Container - Geneva Hall,HDH EMERGENCY CONTAINER   GENEVA HALL,32.8855413,-117.2420642,"9956 International Ln, La Jolla, CA 92093, USA"
HDH Emergency Container - Gilman Parking,HDH EMERGENCY CONTAINER   GILMAN PARKING,32.8776194,-117.2336633,"252 Russell Ln, La Jolla, CA 92093, USA"
HDH Emergency Container - Goldberg,HDH EMERGENCY CONTAINER   GOLDBERG,32.8732353,-117.2205682,"La Jolla, CA 92037, USA"
HDH Emergency Container - La Jolla Del Sol,HDH EMERGENCY CONTAINER   LA JOLLA DEL SOL,32.8655512,-117.2230338,"8046 Regents Rd, San Diego, CA 92122, USA"
HDH Emergency Container - Marshall Uppers,HDH EMERGENCY CONTAINER   MARSHALL UPPERS,32.8833158,-117.2417072,"Thurgood Marshall College Upper Apartments, San Diego, CA 92161, USA"
HDH Emergency Container - Mesa Housing,HDH EMERGENCY CONTAINER   MESA HOUSING,32.8743495,-117.2205048,"9260 C Mesa, La Jolla, CA 92037, USA"
HDH Emergency Container - Muir Fields,HDH EMERGENCY CONTAINER   MUIR FIELDS,32.876944,-117.2428228,"San Diego, CA 92161, USA"
HDH Emergency Container - Oceanview,HDH EMERGENCY CONTAINER   OCEANVIEW,32.8831037,-117.2427668,"9788 Scholars Dr N, La Jolla, CA 92093, USA"
HDH Emergency Container - Pangea Parking,HDH EMERGENCY CONTAINER   PANGEA PARKING,32.8842265,-117.2430026,"9834 Scholars Dr N, La Jolla, CA 92093, USA"
HDH Emergency Container - Rita Atkinson,HDH EMERGENCY CONTAINER   RITA ATKINSON,32.872898,-117.2353067,"9450 Gilman Dr, La Jolla, CA 92092, USA"
HDH Emergency Container - Seventh West 1,HDH EMERGENCY CONTAINER   SEVENTH WEST 1,32.8886055,-117.2422681,"10176 Scholars Dr N, La Jolla, CA 92093, USA"
HDH Emergency Container - Seventh West 4,HDH EMERGENCY CONTAINER   SEVENTH WEST 4,32.8886055,-117.2422681,"10176 Scholars Dr N, La Jolla, CA 92093, USA"
HDH Emergency Container - Stewart Commons,HDH EMERGENCY CONTAINER   STEWART COMMONS,32.878911,-117.2425361,"Stewart Commons, San Diego, CA 92161, USA"
High Bay Physics Laboratory,HIGH BAY PHYSICS LABORATORY,32.8797143,-117.2343119,"3201 Matthews Ln, La Jolla, CA 92093, USA"
Hillcrest Medical Center Central Plant,HILLCREST MEDICAL CENTER CENTRAL PLANT,32.8773757,-117.2250874,"9470 Medical Ctr Dr, La Jolla, CA 92037, USA"
Hillcrest Medical Center Restrooms,HILLCREST MEDICAL CENTER RESTROOMS,32.881168,-117.2343605,"9500 Gilman Dr, La Jolla, CA 92093, USA"
Hillcrest Parking,HILLCREST PARKING,32.881168,-117.2343605,"9500 Gilman Dr, La Jolla, CA 92093, USA"
Holly,HOLLY,32.881168,-117.2343605,"9500 Gilman Dr, La Jolla, CA 92093, USA"
Holly Addition,HOLLY ADDITION,32.8739,-117.23448,"3167 Biomedical Sciences Wy, La Jolla, CA 92093, USA"
Hopkins Parking,HOPKINS PARKING,32.8837791,-117.2394026,"9800 Hopkins Dr, La Jolla, CA 92093, USA"
Housing Dining and Hospitality Services,HOUSING DINING AND HOSPITALITY SERVICES,32.8745329,-117.2430351,"9241 S Scholars Dr, La Jolla, CA 92093, USA"
Hubbs Hall,HUBBS HALL,32.881168,-117.2343605,"9500 Gilman Dr, La Jolla, CA 92093, USA"
Human Rights,HUMAN RIGHTS,32.881168,-117.2343605,"9500 Gilman Dr, La Jolla, CA 92093, USA"
Humanities and Social Sciences,HUMANITIES AND SOCIAL SCIENCES,32.881168,-117.2343605,"9500 Gilman Dr, La Jolla, CA 92093, USA"
Hydraulics Laboratory,HYDRAULICS LABORATORY,32.881168,-117.2343605,"9500 Gilman Dr, La Jolla, CA 92093, USA"
Ida and Cecil Green Faculty Club,IDA AND CECIL GREEN FACULTY CLUB,32.879255,-117.239585,"9500 Gilman Drive MC 0121, 3035 Muir Ln, La Jolla, CA 92093, USA"
IGPP - Munk Laboratory,IGPP   MUNK LABORATORY,32.8683075,-117.2529733,"8800 Biological Grade, La Jolla, CA 92037, USA"
IGPP - Pinon Flats,IGPP   PINON FLATS,32.8328112,-117.2712717,"La Jolla, San Diego, CA, USA"
IGPP 1000 - Revelle Laboratory,IGPP 1000   REVELLE LABORATORY,32.8683075,-117.2529733,"8800 Biological Grade, La Jolla, CA 92037, USA"
IGPP 2000 - Revelle Laboratory,IGPP 2000   REVELLE LABORATORY,32.867817,-117.2524631,"8765 Biological Grade, La Jolla, CA 92037, USA"
IGPP 3000 - Revelle Laboratory,IGPP 3000   REVELLE LABORATORY,32.8678235,-117.2522514,"8775 Biological Grade, La Jolla, CA 92037, USA"
IGPP 4000 - Revelle Laboratory,IGPP 4000   REVELLE LABORATORY,32.8683075,-117.2529733,"8800 Biological Grade, La Jolla, CA 92037, USA"
Information Center - North Point Entrance,INFORMATION CENTER   NORTH POINT ENTRANCE,32.8328112,-117.2712717,"La Jolla, San Diego, CA, USA"
Information Center- Gilman Entrance,INFORMATION CENTER  GILMAN ENTRANCE,32.881168,-117.2343605,"9500 Gilman Dr, La Jolla, CA 92093, USA"
Inpatient Tower,INPATIENT TOWER,32.881168,-117.2343605,"9500 Gilman Dr, La Jolla, CA 92093, USA"
Institute of the Americas Addition,INSTITUTE OF THE AMERICAS ADDITION,32.8853407,-117.2410642,"9909 International Ln, La Jolla, CA 92093, USA"
Institute of the Americas Building,INSTITUTE OF THE AMERICAS BUILDING,32.8853407,-117.2410642,"9909 International Ln, La Jolla, CA 92093, USA"
Isaacs Hall,ISAACS HALL,32.8697024,-117.2523174,"Isaacs Hall, 8875 Biological Grade, La Jolla, CA 92037, USA"
Israni Biomedical Research Facility,ISRANI BIOMEDICAL RESEARCH FACILITY,32.8744664,-117.2349451,"3147 Biomedical Sciences Wy, La Jolla, CA 92093, USA"
Ivy,IVY,32.881168,-117.2343605,"9500 Gilman Dr, La Jolla, CA 92093, USA"
J. Craig Venter Institute,J. CRAIG VENTER INSTITUTE,32.86910700000001,-117.243037,"4120 Capricorn Ln, La Jolla, CA 92037, USA"
Jacaranda,JACARANDA,32.881168,-117.2343605,"9500 Gilman Dr, La Jolla, CA 92093, USA"
Jacobs Hall,JACOBS HALL,32.8816988,-117.2352306,"Jacobs Hall, Engineers Ln, San Diego, CA 92161, USA"
Jacobs Medical Center - Bed Tower,JACOBS MEDICAL CENTER   BED TOWER,32.8777169,-117.2262295,"9300 Campus Point Dr, San Diego, CA 92037, USA"
James' Place,JAMES' PLACE,32.871811,-117.2408727,"2910 La Jolla Village Dr, La Jolla, CA 92093, USA"
Jerboa,JERBOA,32.881168,-117.2343605,"9500 Gilman Dr, La Jolla, CA 92093, USA"
JMC Emergency Preparedness,JMC EMERGENCY PREPAREDNESS,32.881168,-117.2343605,"9500 Gilman Dr, La Jolla, CA 92093, USA"
Joan and Irwin Jacobs Center for La Jolla Playhouse,JOAN AND IRWIN JACOBS CENTER FOR LA JOLLA PLAYHOUSE,32.8713818,-117.2406508,"2910 La Jolla Village Dr, La Jolla, CA 92093, USA"
Justice,JUSTICE,32.881168,-117.2343605,"9500 Gilman Dr, La Jolla, CA 92093, USA"
Kaleidoscope,KALEIDOSCOPE,32.881168,-117.2343605,"9500 Gilman Dr, La Jolla, CA 92093, USA"
Kalmia,KALMIA,32.881168,-117.2343605,"9500 Gilman Dr, La Jolla, CA 92093, USA"
Kaplan Lab,KAPLAN LAB,32.881168,-117.2343605,"9500 Gilman Dr, La Jolla, CA 92093, USA"
Kathmandu House East,KATHMANDU HOUSE EAST,32.8849872,-117.2421809,"Kathmandu House, La Jolla, CA 92093, USA"
Kathmandu House West,KATHMANDU HOUSE WEST,32.8849872,-117.2421809,"Kathmandu House, La Jolla, CA 92093, USA"
Keck Oceanographic and Atmospheric Research - 1,KECK OCEANOGRAPHIC AND ATMOSPHERIC RESEARCH   1,32.8694028,-117.2504492,"8851 Shellback Way, La Jolla, CA 92037, USA"
Keck Oceanographic and Atmospheric Research - 2,KECK OCEANOGRAPHIC AND ATMOSPHERIC RESEARCH   2,32.8694028,-117.2504492,"8851 Shellback Way, La Jolla, CA 92037, USA"
Keck Oceanographic and Atmospheric Research - 3,KECK OCEANOGRAPHIC AND ATMOSPHERIC RESEARCH   3,32.8694028,-117.2504492,"8851 Shellback Way, La Jolla, CA 92037, USA"
Kelp,KELP,32.881168,-117.2343605,"9500 Gilman Dr, La Jolla, CA 92093, USA"
Kendall-Frost Marsh Reserve Trailer,KENDALL FROST MARSH RESERVE TRAILER,32.7941303,-117.2291748,"Kendall-Frost Mission Bay Marsh Reserve, 2055 Pacific Beach Dr, San Diego, CA 92109, USA"
Knowledge,KNOWLEDGE,32.881168,-117.2343605,"9500 Gilman Dr, La Jolla, CA 92093, USA"
Koman Family Outpatient Pavilion,KOMAN FAMILY OUTPATIENT PAVILION,32.8783592,-117.2242183,"9400 Campus Point Dr, La Jolla, CA 92037, USA"
La Jolla Institute for Immunology,LA JOLLA INSTITUTE FOR IMMUNOLOGY,32.8774194,-117.2196033,"9420 Athena Cir, La Jolla, CA 92037, USA"
Landscape Services Trailer,LANDSCAPE SERVICES TRAILER,32.881168,-117.2343605,"9500 Gilman Dr, La Jolla, CA 92093, USA"
Large Animal Care Facility,LARGE ANIMAL CARE FACILITY,32.881168,-117.2343605,"9500 Gilman Dr, La Jolla, CA 92093, USA"
Latin America Hall,LATIN AMERICA HALL,32.8851058,-117.2434705,"9882 Scholars Dr N, La Jolla, CA 92093, USA"
Laurel,LAUREL,32.881168,-117.2343605,"9500 Gilman Dr, La Jolla, CA 92093, USA"
Laurel Extension,LAUREL EXTENSION,32.881168,-117.2343605,"9500 Gilman Dr, La Jolla, CA 92093, USA"
Leichtag Family Foundation Biomedical Research Building,LEICHTAG FAMILY FOUNDATION BIOMEDICAL RESEARCH BUILDING,32.8767963,-117.2372406,"9461 Gilman Dr, La Jolla, CA 92093, USA"
Liberation,LIBERATION,32.881168,-117.2343605,"9500 Gilman Dr, La Jolla, CA 92093, USA"
Lifeguard Tower,LIFEGUARD TOWER,32.881168,-117.2343605,"9500 Gilman Dr, La Jolla, CA 92093, USA"
Limu,LIMU,32.881168,-117.2343605,"9500 Gilman Dr, La Jolla, CA 92093, USA"
Magnolia,MAGNOLIA,32.881168,-117.2343605,"9500 Gilman Dr, La Jolla, CA 92093, USA"
Main Gymnasium,MAIN GYMNASIUM,32.8771494,-117.2412479,"2995 Scholars Ln, La Jolla, CA 92093, USA"
Mandell Weiss Forum,MANDELL WEISS FORUM,32.8721104,-117.2410182,"La Jolla, CA 92037, USA"
Mandell Weiss Theatre,MANDELL WEISS THEATRE,32.8709622,-117.2412549,"2910 La Jolla Village Dr, La Jolla, CA 92093, USA"
Mandell Weiss Theatre Shop,MANDELL WEISS THEATRE SHOP,32.8709622,-117.2412549,"2910 La Jolla Village Dr, La Jolla, CA 92093, USA"
Mandeville Center,MANDEVILLE CENTER,32.8777923,-117.2399788,"9390 Mandeville Ln, La Jolla, CA 92093, USA"
Mandler Hall,MANDLER HALL,32.8793034,-117.2421403,"2941 Muir Ln, La Jolla, CA 92093, USA"
Marea,MAREA,32.881168,-117.2343605,"9500 Gilman Dr, La Jolla, CA 92093, USA"
MarFac Building 1,MARFAC BUILDING 1,32.881168,-117.2343605,"9500 Gilman Dr, La Jolla, CA 92093, USA"
MarFac Building 2,MARFAC BUILDING 2,32.881168,-117.2343605,"9500 Gilman Dr, La Jolla, CA 92093, USA"
MarFac Building 3,MARFAC BUILDING 3,32.881168,-117.2343605,"9500 Gilman Dr, La Jolla, CA 92093, USA"
Marine Conservation and Technology Facility,MARINE CONSERVATION AND TECHNOLOGY FACILITY,32.8713329,-117.2519081,"8890 Biological Grade, La Jolla, CA 92037, USA"
Marine Ecosystem Sensing Observation and Modeling,MARINE ECOSYSTEM SENSING OBSERVATION AND MODELING,32.881168,-117.2343605,"9500 Gilman Dr, La Jolla, CA 92093, USA"
Marine Geology Collection Building,MARINE GEOLOGY COLLECTION BUILDING,32.881168,-117.2343605,"9500 Gilman Dr, La Jolla, CA 92093, USA"
Marine Science Development Center - Building A,MARINE SCIENCE DEVELOPMENT CENTER   BUILDING A,32.8666612,-117.2537859,"2134 Naga Way, La Jolla, CA 92037, USA"
Marine Science Development Center - Building B,MARINE SCIENCE DEVELOPMENT CENTER   BUILDING B,32.8667264,-117.2536264,"2136 Naga Way, La Jolla, CA 92037, USA"
Marine Science Development Center - Building C,MARINE SCIENCE DEVELOPMENT CENTER   BUILDING C,32.8665709,-117.2532695,"2138 Naga Way, La Jolla, CA 92037, USA"
Marine Science Development Center - Building D,MARINE SCIENCE DEVELOPMENT CENTER   BUILDING D,32.8663558,-117.2535328,"2140 Naga Way, La Jolla, CA 92037, USA"
Marketplace,MARKETPLACE,32.881168,-117.2343605,"9500 Gilman Dr, La Jolla, CA 92093, USA"
Marshall College Dean's Residence,MARSHALL COLLEGE DEAN'S RESIDENCE,32.8831443,-117.2431716,"San Diego, CA 92161, USA"
Martin Johnson House,MARTIN JOHNSON HOUSE,32.8690889,-117.2528861,"8840 Biological Grade, La Jolla, CA 92037, USA"
Matthews Apartments A,MATTHEWS APARTMENTS A,32.878646,-117.2310505,"Matthews Apartments, La Jolla, CA 92093, USA"
Matthews Apartments B,MATTHEWS APARTMENTS B,32.878646,-117.2310505,"Matthews Apartments, La Jolla, CA 92093, USA"
Matthews Apartments C,MATTHEWS APARTMENTS C,32.878646,-117.2310505,"Matthews Apartments, La Jolla, CA 92093, USA"
Matthews Apartments D,MATTHEWS APARTMENTS D,32.878646,-117.2310505,"Matthews Apartments, La Jolla, CA 92093, USA"
Matthews Apartments E,MATTHEWS APARTMENTS E,32.878646,-117.2310505,"Matthews Apartments, La Jolla, CA 92093, USA"
Matthews Housing Maintenance Carpentry Shop,MATTHEWS HOUSING MAINTENANCE CARPENTRY SHOP,32.881168,-117.2343605,"9500 Gilman Dr, La Jolla, CA 92093, USA"
Matthews Maintenance and Lounge,MATTHEWS MAINTENANCE AND LOUNGE,32.881168,-117.2343605,"9500 Gilman Dr, La Jolla, CA 92093, USA"
Mayer Hall,MAYER HALL,32.8754409,-117.239888,"9280 Eucalyptus Grove Ln, La Jolla, CA 92093, USA"
Mayer Hall Addition,MAYER HALL ADDITION,32.8754409,-117.239888,"9280 Eucalyptus Grove Ln, La Jolla, CA 92093, USA"
McGill Hall,MCGILL HALL,32.8790201,-117.2420577,"2947 Muir Ln, La Jolla, CA 92093, USA"
Medical Center Modular 1,MEDICAL CENTER MODULAR 1,32.8767056,-117.2261318,"Medical Ctr Dr, San Diego, CA, USA"
Medical Center Modular 2,MEDICAL CENTER MODULAR 2,32.8767056,-117.2261318,"Medical Ctr Dr, San Diego, CA, USA"
Medical Center Switching Station,MEDICAL CENTER SWITCHING STATION,32.8767056,-117.2261318,"Medical Ctr Dr, San Diego, CA, USA"
Medical Library,MEDICAL LIBRARY,32.881168,-117.2343605,"9500 Gilman Dr, La Jolla, CA 92093, USA"
Medical Offices North,MEDICAL OFFICES NORTH,32.881168,-117.2343605,"9500 Gilman Dr, La Jolla, CA 92093, USA"
Medical Offices South,MEDICAL OFFICES SOUTH,32.7531371,-117.1652264,"Medical Offices South, 4168 Front St, San Diego, CA 92103, USA"
Medical Teaching Facility,MEDICAL TEACHING FACILITY,32.8756041,-117.2355062,"9515 Gilman Dr, La Jolla, CA 92093, USA"
Mesa Apartments Central - 9226,MESA APARTMENTS CENTRAL   9226,32.87382780000001,-117.2215649,"Miramar St, La Jolla, CA 92037, USA"
Mesa Apartments Central - 9228,MESA APARTMENTS CENTRAL   9228,32.87382780000001,-117.2215649,"Miramar St, La Jolla, CA 92037, USA"
Mesa Apartments Central - 9230,MESA APARTMENTS CENTRAL   9230,32.87382780000001,-117.2215649,"Miramar St, La Jolla, CA 92037, USA"
Mesa Apartments Central - 9232,MESA APARTMENTS CENTRAL   9232,32.87382780000001,-117.2215649,"Miramar St, La Jolla, CA 92037, USA"
Mesa Apartments Central - 9234,MESA APARTMENTS CENTRAL   9234,32.87382780000001,-117.2215649,"Miramar St, La Jolla, CA 92037, USA"
Mesa Apartments Central - 9236,MESA APARTMENTS CENTRAL   9236,32.87382780000001,-117.2215649,"Miramar St, La Jolla, CA 92037, USA"
Mesa Apartments Central - 9238 (Laundry),MESA APARTMENTS CENTRAL   9238,32.87382780000001,-117.2215649,"Miramar St, La Jolla, CA 92037, USA"
Mesa Apartments Central - 9240,MESA APARTMENTS CENTRAL   9240,32.87382780000001,-117.2215649,"Miramar St, La Jolla, CA 92037, USA"
Mesa Apartments Central - 9242,MESA APARTMENTS CENTRAL   9242,32.87382780000001,-117.2215649,"Miramar St, La Jolla, CA 92037, USA"
Mesa Apartments Central - 9244,MESA APARTMENTS CENTRAL   9244,32.87382780000001,-117.2215649,"Miramar St, La Jolla, CA 92037, USA"
Mesa Apartments Central - 9246,MESA APARTMENTS CENTRAL   9246,32.87382780000001,-117.2215649,"Miramar St, La Jolla, CA 92037, USA"
Mesa Apartments Central - 9248,MESA APARTMENTS CENTRAL   9248,32.87382780000001,-117.2215649,"Miramar St, La Jolla, CA 92037, USA"
Mesa Apartments Central - 9250,MESA APARTMENTS CENTRAL   9250,32.87382780000001,-117.2215649,"Miramar St, La Jolla, CA 92037, USA"
Mesa Apartments Central - 9252,MESA APARTMENTS CENTRAL   9252,32.87382780000001,-117.2215649,"Miramar St, La Jolla, CA 92037, USA"
Mesa Apartments Central - 9254,MESA APARTMENTS CENTRAL   9254,32.87382780000001,-117.2215649,"Miramar St, La Jolla, CA 92037, USA"
Mesa Apartments Central - 9256,MESA APARTMENTS CENTRAL   9256,32.87382780000001,-117.2215649,"Miramar St, La Jolla, CA 92037, USA"
Mesa Apartments Central - 9258,MESA APARTMENTS CENTRAL   9258,32.87382780000001,-117.2215649,"Miramar St, La Jolla, CA 92037, USA"
Mesa Apartments Central - 9260,MESA APARTMENTS CENTRAL   9260,32.87382780000001,-117.2215649,"Miramar St, La Jolla, CA 92037, USA"
Mesa Apartments Central - 9262,MESA APARTMENTS CENTRAL   9262,32.87382780000001,-117.2215649,"Miramar St, La Jolla, CA 92037, USA"
Mesa Apartments Central - 9264 (Laundry),MESA APARTMENTS CENTRAL   9264,32.87382780000001,-117.2215649,"Miramar St, La Jolla, CA 92037, USA"
Mesa Apartments Central - 9266,MESA APARTMENTS CENTRAL   9266,32.87382780000001,-117.2215649,"Miramar St, La Jolla, CA 92037, USA"
Mesa Apartments Central - 9268,MESA APARTMENTS CENTRAL   9268,32.87382780000001,-117.2215649,"Miramar St, La Jolla, CA 92037, USA"
Mesa Apartments Central - 9270,MESA APARTMENTS CENTRAL   9270,32.87382780000001,-117.2215649,"Miramar St, La Jolla, CA 92037, USA"
Mesa Apartments South - 9100,MESA APARTMENTS SOUTH   9100,32.87382780000001,-117.2215649,"Miramar St, La Jolla, CA 92037, USA"
Mesa Apartments South - 9106,MESA APARTMENTS SOUTH   9106,32.87382780000001,-117.2215649,"Miramar St, La Jolla, CA 92037, USA"
Mesa Apartments South - 9114,MESA APARTMENTS SOUTH   9114,32.87382780000001,-117.2215649,"Miramar St, La Jolla, CA 92037, USA"
Mesa Apartments South - 9118,MESA APARTMENTS SOUTH   9118,32.87382780000001,-117.2215649,"Miramar St, La Jolla, CA 92037, USA"
Mesa Apartments South - 9122,MESA APARTMENTS SOUTH   9122,32.87382780000001,-117.2215649,"Miramar St, La Jolla, CA 92037, USA"
Mesa Apartments South - 9126 (Laundry),MESA APARTMENTS SOUTH   9126,32.87382780000001,-117.2215649,"Miramar St, La Jolla, CA 92037, USA"
Mesa Apartments South - 9130,MESA APARTMENTS SOUTH   9130,32.87382780000001,-117.2215649,"Miramar St, La Jolla, CA 92037, USA"
Mesa Apartments South - 9134,MESA APARTMENTS SOUTH   9134,32.87382780000001,-117.2215649,"Miramar St, La Jolla, CA 92037, USA"
Mesa Apartments South - 9138,MESA APARTMENTS SOUTH   9138,32.87382780000001,-117.2215649,"Miramar St, La Jolla, CA 92037, USA"
Mesa Apartments South - 9142,MESA APARTMENTS SOUTH   9142,32.87382780000001,-117.2215649,"Miramar St, La Jolla, CA 92037, USA"
Mesa Apartments South - 9146,MESA APARTMENTS SOUTH   9146,32.87382780000001,-117.2215649,"Miramar St, La Jolla, CA 92037, USA"
Mesa Apartments South - 9148,MESA APARTMENTS SOUTH   9148,32.87382780000001,-117.2215649,"Miramar St, La Jolla, CA 92037, USA"
Mesa Apartments South - 9152,MESA APARTMENTS SOUTH   9152,32.87382780000001,-117.2215649,"Miramar St, La Jolla, CA 92037, USA"
Mesa Apartments South - 9156 (Laundry),MESA APARTMENTS SOUTH   9156,32.87382780000001,-117.2215649,"Miramar St, La Jolla, CA 92037, USA"
Mesa Apartments South - 9160,MESA APARTMENTS SOUTH   9160,32.87382780000001,-117.2215649,"Miramar St, La Jolla, CA 92037, USA"
Mesa Apartments South - 9162,MESA APARTMENTS SOUTH   9162,32.87382780000001,-117.2215649,"Miramar St, La Jolla, CA 92037, USA"
Mesa Apartments South - 9168,MESA APARTMENTS SOUTH   9168,32.87382780000001,-117.2215649,"Miramar St, La Jolla, CA 92037, USA"
Mesa Apartments South - 9172,MESA APARTMENTS SOUTH   9172,32.87382780000001,-117.2215649,"Miramar St, La Jolla, CA 92037, USA"
Mesa Apartments South - 9176,MESA APARTMENTS SOUTH   9176,32.87382780000001,-117.2215649,"Miramar St, La Jolla, CA 92037, USA"
Mesa Apartments South - 9180,MESA APARTMENTS SOUTH   9180,32.87382780000001,-117.2215649,"Miramar St, La Jolla, CA 92037, USA"
Mesa Apartments South - 9184 (Laundry),MESA APARTMENTS SOUTH   9184,32.87382780000001,-117.2215649,"Miramar St, La Jolla, CA 92037, USA"
Mesa Apartments South - 9188,MESA APARTMENTS SOUTH   9188,32.87382780000001,-117.2215649,"Miramar St, La Jolla, CA 92037, USA"
Mesa Apartments South - 9192,MESA APARTMENTS SOUTH   9192,32.87382780000001,-117.2215649,"Miramar St, La Jolla, CA 92037, USA"
Mesa Canyon Parking,MESA CANYON PARKING,32.8762761,-117.2226484,"La Jolla, CA 92037, USA"
Mesa Child Development Center A,MESA CHILD DEVELOPMENT CENTER A,32.8734171,-117.2235369,"3785 Mesa Pk Ct, La Jolla, CA 92093, USA"
Mesa Child Development Center B,MESA CHILD DEVELOPMENT CENTER B,32.87317,-117.22353,"3781 Mesa Pk Ct, La Jolla, CA 92093, USA"
Mesa Child Development Center C,MESA CHILD DEVELOPMENT CENTER C,32.87337,-117.22325,"3789 Mesa Pk Ct, La Jolla, CA 92093, USA"
Mesa Verde Hall North,MESA VERDE HALL NORTH,32.8860192,-117.2414146,"9995 International Ln, La Jolla, CA 92093, USA"
Mesa Verde Hall South,MESA VERDE HALL SOUTH,32.8860192,-117.2414146,"9995 International Ln, La Jolla, CA 92093, USA"
Meteor Hall,METEOR HALL,32.8738214,-117.2419498,"9221 S Scholars Dr, La Jolla, CA 92093, USA"
Middle East Hall,MIDDLE EAST HALL,32.8856609,-117.2425493,"La Jolla, CA 92037, USA"
Mission Bay Aquatic,MISSION BAY AQUATIC,32.881168,-117.2343605,"9500 Gilman Dr, La Jolla, CA 92093, USA"
Mobile CT Scanner,MOBILE CT SCANNER,32.881168,-117.2343605,"9500 Gilman Dr, La Jolla, CA 92093, USA"
Molli and Arthur Wagner Dance Building,MOLLI AND ARTHUR WAGNER DANCE BUILDING,32.871811,-117.2400632,"9155 Mandell Weiss Ln, La Jolla, CA 92037, USA"
Moores Cancer Center,MOORES CANCER CENTER,32.8786467,-117.2230577,"3855 Health Sciences Dr, La Jolla, CA 92037, USA"
Mosaic,MOSAIC,32.881168,-117.2343605,"9500 Gilman Dr, La Jolla, CA 92093, USA"
Movement,MOVEMENT,32.881168,-117.2343605,"9500 Gilman Dr, La Jolla, CA 92093, USA"
MRI Research Building,MRI RESEARCH BUILDING,32.881168,-117.2343605,"9500 Gilman Dr, La Jolla, CA 92093, USA"
Mt. Soledad Lab 1,MT. SOLEDAD LAB 1,32.881168,-117.2343605,"9500 Gilman Dr, La Jolla, CA 92093, USA"
Mt. Soledad Lab 2,MT. SOLEDAD LAB 2,32.8397698,-117.252259,"Soledad Mountain, San Diego, CA 92037, USA"
Multipurpose Facility,MULTIPURPOSE FACILITY,32.881168,-117.2343605,"9500 Gilman Dr, La Jolla, CA 92093, USA"
Narrative,NARRATIVE,32.881168,-117.2343605,"9500 Gilman Dr, La Jolla, CA 92093, USA"
Natatorium,NATATORIUM,32.8771741,-117.2418559,"2997 Scholars Ln, La Jolla, CA 92093, USA"
Natural Sciences Building,NATURAL SCIENCES BUILDING,32.8752882,-117.2423111,"9500 Gilman Dr, La Jolla, CA 92093, USA"
New Scripps Administration,NEW SCRIPPS ADMINISTRATION,32.8649185,-117.2541816,"8622 Kennel Way, La Jolla, CA 92037, USA"
Nierenberg Hall,NIERENBERG HALL,32.881168,-117.2343605,"9500 Gilman Dr, La Jolla, CA 92093, USA"
Nierenberg Trailer North,NIERENBERG TRAILER NORTH,32.881168,-117.2343605,"9500 Gilman Dr, La Jolla, CA 92093, USA"
Nierenberg Trailer West,NIERENBERG TRAILER WEST,32.881168,-117.2343605,"9500 Gilman Dr, La Jolla, CA 92093, USA"
Nihonbashi Life Science Building,NIHONBASHI LIFE SCIENCE BUILDING,32.8328112,-117.2712717,"La Jolla, San Diego, CA, USA"
Nimitz Marine Facility Laboratory Building,NIMITZ MARINE FACILITY LABORATORY BUILDING,32.881168,-117.2343605,"9500 Gilman Dr, La Jolla, CA 92093, USA"
Nimitz Q Storage,NIMITZ Q STORAGE,32.881168,-117.2343605,"9500 Gilman Dr, La Jolla, CA 92093, USA"
NMR Spectroscopy,NMR SPECTROSCOPY,32.881168,-117.2343605,"9500 Gilman Dr, La Jolla, CA 92093, USA"
NOAA Southwest Fisheries Science Center,NOAA SOUTHWEST FISHERIES SCIENCE CENTER,32.8700747,-117.251156,"NOAA La Jolla Laboratory, 8901 La Jolla Shores Dr, La Jolla, CA 92037, USA"
Nori,NORI,32.881168,-117.2343605,"9500 Gilman Dr, La Jolla, CA 92093, USA"
North America Hall,NORTH AMERICA HALL,32.8847624,-117.243444,"9862 Scholars Dr N, La Jolla, CA 92093, USA"
North Annex Replacement Facility,NORTH ANNEX REPLACEMENT FACILITY,32.881168,-117.2343605,"9500 Gilman Dr, La Jolla, CA 92093, USA"
North Campus Restrooms Building,NORTH CAMPUS RESTROOMS BUILDING,32.8886693,-117.2404211,"La Jolla, CA 92093, USA"
Ocean Drilling Program Core Building,OCEAN DRILLING PROGRAM CORE BUILDING,32.8670847,-117.2511635,"2235 Downwind Way, La Jolla, CA 92037, USA"
Oceania Hall,OCEANIA HALL,32.8849476,-117.2425801,"La Jolla, CA 92037, USA"
OceanView Terrace,OCEANVIEW TERRACE,32.8831037,-117.2427668,"9788 Scholars Dr N, La Jolla, CA 92093, USA"
Ola Parking,OLA PARKING,32.881168,-117.2343605,"9500 Gilman Dr, La Jolla, CA 92093, USA"
Old Director's House,OLD DIRECTOR'S HOUSE,32.8659617,-117.2529828,"8665 Naga Ln, La Jolla, CA 92037, USA"
Old Outback Adventures,OLD OUTBACK ADVENTURES,32.8892149,-117.2404527,"North Point Ln, La Jolla, CA 92093, USA"
Old Scripps,OLD SCRIPPS,32.881168,-117.2343605,"9500 Gilman Dr, La Jolla, CA 92093, USA"
One Civic Center,ONE CIVIC CENTER,32.881168,-117.2343605,"9500 Gilman Dr, La Jolla, CA 92093, USA"
One Miramar Street - 1,ONE MIRAMAR STREET   1,32.87353,-117.22632,"3615 Miramar Cir, La Jolla, CA 92037, USA"
One Miramar Street - 2,ONE MIRAMAR STREET   2,32.87313,-117.22745,"3625 Miramar Cir, La Jolla, CA 92037, USA"
One Miramar Street - 3,ONE MIRAMAR STREET   3,32.8738427,-117.2267262,"1 Miramar St, La Jolla, CA 92037, USA"
One Miramar Street - 4,ONE MIRAMAR STREET   4,32.87418,-117.22648,"3645 Miramar St, La Jolla, CA 92037, USA"
One Miramar Street - 5,ONE MIRAMAR STREET   5,32.8738699,-117.22583,"3620 Miramar St, La Jolla, CA 92093, USA"
One Miramar Street Parking,ONE MIRAMAR STREET PARKING,32.8737046,-117.2253399,"3610 Miramar St, La Jolla, CA 92093, USA"
Opportunity,OPPORTUNITY,32.881168,-117.2343605,"9500 Gilman Dr, La Jolla, CA 92093, USA"
Otterson Hall,OTTERSON HALL,32.8865929,-117.2411101,"Otterson Hall, La Jolla, CA 92093, USA"
Outback Adventures,OUTBACK ADVENTURES,32.8892149,-117.2404527,"North Point Ln, La Jolla, CA 92093, USA"
Pacific Hall,PACIFIC HALL,32.8759544,-117.242124,"9301 S Scholars Dr, La Jolla, CA 92093, USA"
Pangea Parking,PANGEA PARKING,32.8842556,-117.2431062,"Pangea Parking Structure, La Jolla, CA 92037, USA"
Park and Market,PARK AND MARKET,32.8328112,-117.2712717,"La Jolla, San Diego, CA, USA"
Peace,PEACE,32.881168,-117.2343605,"9500 Gilman Dr, La Jolla, CA 92093, USA"
Pepper Canyon Apartments 100,PEPPER CANYON APARTMENTS 100,32.8775872,-117.2306142,"9500 Gilman Dr, La Jolla, CA 92093, USA"
Pepper Canyon Apartments 1000,PEPPER CANYON APARTMENTS 1000,32.8775872,-117.2306142,"9500 Gilman Dr, La Jolla, CA 92093, USA"
Pepper Canyon Apartments 1100,PEPPER CANYON APARTMENTS 1100,32.8775872,-117.2306142,"9500 Gilman Dr, La Jolla, CA 92093, USA"
Pepper Canyon Apartments 1200,PEPPER CANYON APARTMENTS 1200,32.8775872,-117.2306142,"9500 Gilman Dr, La Jolla, CA 92093, USA"
Pepper Canyon Apartments 1300,PEPPER CANYON APARTMENTS 1300,32.8775872,-117.2306142,"9500 Gilman Dr, La Jolla, CA 92093, USA"
Pepper Canyon Apartments 1400,PEPPER CANYON APARTMENTS 1400,32.8775872,-117.2306142,"9500 Gilman Dr, La Jolla, CA 92093, USA"
Pepper Canyon Apartments 1500,PEPPER CANYON APARTMENTS 1500,32.8775872,-117.2306142,"9500 Gilman Dr, La Jolla, CA 92093, USA"
Pepper Canyon Apartments 1600,PEPPER CANYON APARTMENTS 1600,32.8775872,-117.2306142,"9500 Gilman Dr, La Jolla, CA 92093, USA"
Pepper Canyon Apartments 1700,PEPPER CANYON APARTMENTS 1700,32.8775872,-117.2306142,"9500 Gilman Dr, La Jolla, CA 92093, USA"
Pepper Canyon Apartments 1800,PEPPER CANYON APARTMENTS 1800,32.8775872,-117.2306142,"9500 Gilman Dr, La Jolla, CA 92093, USA"
Pepper Canyon Apartments 200,PEPPER CANYON APARTMENTS 200,32.8775872,-117.2306142,"9500 Gilman Dr, La Jolla, CA 92093, USA"
Pepper Canyon Apartments 300,PEPPER CANYON APARTMENTS 300,32.8775872,-117.2306142,"9500 Gilman Dr, La Jolla, CA 92093, USA"
Pepper Canyon Apartments 400,PEPPER CANYON APARTMENTS 400,32.8775872,-117.2306142,"9500 Gilman Dr, La Jolla, CA 92093, USA"
Pepper Canyon Apartments 500,PEPPER CANYON APARTMENTS 500,32.8775872,-117.2306142,"9500 Gilman Dr, La Jolla, CA 92093, USA"
Pepper Canyon Apartments 600,PEPPER CANYON APARTMENTS 600,32.8775872,-117.2306142,"9500 Gilman Dr, La Jolla, CA 92093, USA"
Pepper Canyon Apartments 700,PEPPER CANYON APARTMENTS 700,32.8775872,-117.2306142,"9500 Gilman Dr, La Jolla, CA 92093, USA"
Pepper Canyon Apartments 800,PEPPER CANYON APARTMENTS 800,32.8775872,-117.2306142,"9500 Gilman Dr, La Jolla, CA 92093, USA"
Pepper Canyon Apartments 900,PEPPER CANYON APARTMENTS 900,32.8775872,-117.2306142,"9500 Gilman Dr, La Jolla, CA 92093, USA"
Pepper Canyon Apartments Lodge,PEPPER CANYON APARTMENTS LODGE,32.8775872,-117.2306142,"9500 Gilman Dr, La Jolla, CA 92093, USA"
Pepper Canyon Assistant Dean's Residence,PEPPER CANYON ASSISTANT DEAN'S RESIDENCE,32.8786584,-117.2292507,"Pepper Cyn Dr, San Diego, CA, USA"
Pepper Canyon Hall,PEPPER CANYON HALL,32.8783769,-117.2337607,"Pepper Canyon Hall, La Jolla, CA 92093, USA"
Pepper Canyon North Laundry,PEPPER CANYON NORTH LAUNDRY,32.8786584,-117.2292507,"Pepper Cyn Dr, San Diego, CA, USA"
Pepper Canyon South Laundry,PEPPER CANYON SOUTH LAUNDRY,32.8786584,-117.2292507,"Pepper Cyn Dr, San Diego, CA, USA"
Pepper Canyon Switching Station,PEPPER CANYON SWITCHING STATION,32.8786584,-117.2292507,"Pepper Cyn Dr, San Diego, CA, USA"
Perlman Ambulatory Care Unit,PERLMAN AMBULATORY CARE UNIT,32.8781582,-117.2246797,"9350 Campus Point Dr, La Jolla, CA 92037, USA"
Peterson Hall,PETERSON HALL,32.8799725,-117.2403292,"Peterson Hall, San Diego, CA 92161, USA"
Pharmacy Emergency Generator,PHARMACY EMERGENCY GENERATOR,32.881168,-117.2343605,"9500 Gilman Dr, La Jolla, CA 92093, USA"
Pharmacy Home Infusion Services,PHARMACY HOME INFUSION SERVICES,32.881168,-117.2343605,"9500 Gilman Dr, La Jolla, CA 92093, USA"
Piedra,PIEDRA,32.881168,-117.2343605,"9500 Gilman Dr, La Jolla, CA 92093, USA"
Podemos,PODEMOS,32.873384,-117.2416521,"Torrey Pines, San Diego, CA 92161, USA"
Point Loma 106,POINT LOMA 106,32.881168,-117.2343605,"9500 Gilman Dr, La Jolla, CA 92093, USA"
Porton,PORTON,32.881168,-117.2343605,"9500 Gilman Dr, La Jolla, CA 92093, USA"
Powell Structural Components Laboratory,POWELL STRUCTURAL COMPONENTS LABORATORY,32.8798144,-117.2350909,"3185 Matthews Ln, La Jolla, CA 92093, USA"
Powell Structural Systems Lab Expansion,POWELL STRUCTURAL SYSTEMS LAB EXPANSION,32.8806234,-117.2349611,"3184 Matthews Ln, San Diego, CA 92161, USA"
Powell Structural Systems Laboratory,POWELL STRUCTURAL SYSTEMS LABORATORY,32.8806234,-117.2349611,"3184 Matthews Ln, San Diego, CA 92161, USA"
Powell-Focht Bioengineering Hall,POWELL FOCHT BIOENGINEERING HALL,32.8816331,-117.234368,"3223 Voigt Dr, La Jolla, CA 92093, USA"
Preuss Fabrication Lab,PREUSS FABRICATION LAB,32.88348,-117.22208,"9610 Campus Point Dr, La Jolla, CA 92037, USA"
Preuss Modular Classroom East,PREUSS MODULAR CLASSROOM EAST,32.8826135,-117.2220548,"9600 Campus Point Dr, La Jolla, CA 92037, USA"
Preuss Modular Classroom West,PREUSS MODULAR CLASSROOM WEST,32.8328112,-117.2712717,"La Jolla, San Diego, CA, USA"
Preuss School - Building A,PREUSS SCHOOL   BUILDING A,32.8826135,-117.2220548,"9600 Campus Point Dr, La Jolla, CA 92037, USA"
Preuss School - Building B,PREUSS SCHOOL   BUILDING B,32.8826135,-117.2220548,"9600 Campus Point Dr, La Jolla, CA 92037, USA"
Preuss School - Building C,PREUSS SCHOOL   BUILDING C,32.8826135,-117.2220548,"9600 Campus Point Dr, La Jolla, CA 92037, USA"
Preuss School - Building D,PREUSS SCHOOL   BUILDING D,32.8826135,-117.2220548,"9600 Campus Point Dr, La Jolla, CA 92037, USA"
Preuss School - Building E,PREUSS SCHOOL   BUILDING E,32.8826135,-117.2220548,"9600 Campus Point Dr, La Jolla, CA 92037, USA"
Preuss School - Building F,PREUSS SCHOOL   BUILDING F,32.8826135,-117.2220548,"9600 Campus Point Dr, La Jolla, CA 92037, USA"
Preuss Trailer 1,PREUSS TRAILER 1,32.8826135,-117.2220548,"9600 Campus Point Dr, La Jolla, CA 92037, USA"
Price Center East Expansion,PRICE CENTER EAST EXPANSION,32.8794123,-117.2368497,"3135 Matthews Ln, La Jolla, CA 92093, USA"
Price Center South Expansion,PRICE CENTER SOUTH EXPANSION,32.8797205,-117.2361952,"Price Center, La Jolla, CA 92093, USA"
Price Center West,PRICE CENTER WEST,32.8794123,-117.2368497,"3135 Matthews Ln, La Jolla, CA 92093, USA"
Pulse,PULSE,32.881168,-117.2343605,"9500 Gilman Dr, La Jolla, CA 92093, USA"
Quest,QUEST,32.881168,-117.2343605,"9500 Gilman Dr, La Jolla, CA 92093, USA"
Radiation Oncology Modular Building,RADIATION ONCOLOGY MODULAR BUILDING,32.881168,-117.2343605,"9500 Gilman Dr, La Jolla, CA 92093, USA"
Radiation Oncology PET/CT Center,RADIATION ONCOLOGY PET/CT CENTER,32.879155,-117.2210744,"3960 Health Sciences Dr, La Jolla, CA 92037, USA"
Recreation Gymnasium,RECREATION GYMNASIUM,32.881168,-117.2343605,"9500 Gilman Dr, La Jolla, CA 92093, USA"
Red Cross Emergency Trailer - Gliderport,RED CROSS EMERGENCY TRAILER   GLIDERPORT,32.881168,-117.2343605,"9500 Gilman Dr, La Jolla, CA 92093, USA"
Revelle 12KV Switching Station,REVELLE 12KV SWITCHING STATION,32.87336,-117.23872,"3045 Theatre District Dr, La Jolla, CA 92093, USA"
Revelle College Provost Office,REVELLE COLLEGE PROVOST OFFICE,32.8733101,-117.2399166,"9500 Gilman Dr, La Jolla, CA 92093, USA"
Revolutionary,REVOLUTIONARY,32.881168,-117.2343605,"9500 Gilman Dr, La Jolla, CA 92093, USA"
Ridge Walk Academic Building,RIDGE WALK ACADEMIC BUILDING,32.881168,-117.2343605,"9500 Gilman Dr, La Jolla, CA 92093, USA"
RIMAC,RIMAC,32.8851041,-117.2404977,"9860 Hopkins Dr, La Jolla, CA 92093, USA"
RIMAC Annex,RIMAC ANNEX,32.8857682,-117.2404605,"Rimac Annex, La Jolla, CA 92093, USA"
Rita Atkinson Residences,RITA ATKINSON RESIDENCES,32.872898,-117.2353067,"9450 Gilman Dr, La Jolla, CA 92092, USA"
Ritter Hall,RITTER HALL,32.881168,-117.2343605,"9500 Gilman Dr, La Jolla, CA 92093, USA"
Robert & Natalie Englekirk Structural Engineering Center,ROBERT AND NATALIE ENGLEKIRK STRUCTURAL ENGINEERING CENTER,32.8328112,-117.2712717,"La Jolla, San Diego, CA, USA"
Robert Paine Scripps Forum for Science Society and the Environment - Auditorium,ROBERT PAINE SCRIPPS FORUM FOR SCIENCE SOCIETY AND THE ENVIRONMENT   AUDITORIUM,32.86431830000001,-117.254006,"8610 Kennel Way, La Jolla, CA 92037, USA"
Robert Paine Scripps Seaside Forum Meeting Rooms,ROBERT PAINE SCRIPPS SEASIDE FORUM MEETING ROOMS,32.8641753,-117.2543367,"8608 Kennel Way, La Jolla, CA 92037, USA"
Robert Paine Scripps Seaside Forum Service Building,ROBERT PAINE SCRIPPS SEASIDE FORUM SERVICE BUILDING,32.8640154,-117.2542178,"8604 Kennel Way, La Jolla, CA 92037, USA"
Robinson Building 1 - Administration,ROBINSON BUILDING 1   ADMINISTRATION,32.8841689,-117.2411443,"9815 International Ln, La Jolla, CA 92093, USA"
Robinson Building 2 - Auditorium,ROBINSON BUILDING 2   AUDITORIUM,32.8841689,-117.2411443,"9815 International Ln, La Jolla, CA 92093, USA"
Robinson Building 3 - Library,ROBINSON BUILDING 3   LIBRARY,32.8841689,-117.2411443,"9815 International Ln, La Jolla, CA 92093, USA"
Rockweed,ROCKWEED,32.881168,-117.2343605,"9500 Gilman Dr, La Jolla, CA 92093, USA"
Roger Revelle Student Center,ROGER REVELLE STUDENT CENTER,32.8639915,-117.2543292,"8606 Kennel Way, La Jolla, CA 92037, USA"
Rya,RYA,32.881168,-117.2343605,"9500 Gilman Dr, La Jolla, CA 92093, USA"
Sally T. WongAvery Library,SALLY T. WONGAVERY LIBRARY,32.8751015,-117.2369703,"3100 Biomedical Sciences Wy, San Diego, CA 92093, USA"
San Diego Supercomputer Center,SAN DIEGO SUPERCOMPUTER CENTER,32.8843896,-117.2391717,"9836 Hopkins Dr, La Jolla, CA 92093, USA"
San Diego Supercomputer East Expansion,SAN DIEGO SUPERCOMPUTER EAST EXPANSION,32.8843896,-117.2391717,"9836 Hopkins Dr, La Jolla, CA 92093, USA"
San Diego Supercomputer Office Addition,SAN DIEGO SUPERCOMPUTER OFFICE ADDITION,32.8843896,-117.2391717,"9836 Hopkins Dr, La Jolla, CA 92093, USA"
San Diego/Imperial County Libraries Disaster Response Network Container,SAN DIEGO/IMPERIAL COUNTY LIBRARIES DISASTER RESPONSE NETWORK CONTAINER,33.0113694,-115.4733554,"Imperial County, CA, USA"
Sanford Consortium for Regenerative Medicine,SANFORD CONSORTIUM FOR REGENERATIVE MEDICINE,32.889588,-117.2440291,"2880 Torrey Pines Scenic Dr, La Jolla, CA 92037, USA"
Sankofa,SANKOFA,32.881168,-117.2343605,"9500 Gilman Dr, La Jolla, CA 92093, USA"
Satellite Utilities Plant,SATELLITE UTILITIES PLANT,32.881168,-117.2343605,"9500 Gilman Dr, La Jolla, CA 92093, USA"
Scholander Hall,SCHOLANDER HALL,32.8659285,-117.2537424,"8655 Kennel Way, La Jolla, CA 92037, USA"
School of Medicine Building 1,SCHOOL OF MEDICINE BUILDING 1,32.8750311,-117.2341282,"3180 Biomedical Sciences Wy, La Jolla, CA 92093, USA"
School of Medicine Building 2,SCHOOL OF MEDICINE BUILDING 2,32.8753786,-117.2340363,"851 School of Medicine Building 2, 3182 Biomedical Sciences Wy, La Jolla, CA 92093, USA"
School of Medicine Building 3,SCHOOL OF MEDICINE BUILDING 3,32.8754542,-117.2336944,"Osler Lane UC San Diego School of Medicine, 3192 Biomedical Sciences Wy, La Jolla, CA 92093, USA"
School of Medicine Building 4,SCHOOL OF MEDICINE BUILDING 4,32.87504,-117.2338296,"3190 Biomedical Sciences Wy, La Jolla, CA 92093, USA"
Science and Engineering Research Facility,SCIENCE AND ENGINEERING RESEARCH FACILITY,32.8799236,-117.2348769,"3183 Matthews Ln, La Jolla, CA 92093, USA"
Scripps Elliot Building 1,SCRIPPS ELLIOT BUILDING 1,32.881168,-117.2343605,"9500 Gilman Dr, La Jolla, CA 92093, USA"
Scripps Pier Laboratory,SCRIPPS PIER LABORATORY,32.8669568,-117.2571373,"2000 Naga Way, La Jolla, CA 92037, USA"
Security Modulars at Front and Arbor,SECURITY MODULARS AT FRONT AND ARBOR,32.881168,-117.2343605,"9500 Gilman Dr, La Jolla, CA 92093, USA"
Sequoyah Hall,SEQUOYAH HALL,32.8821398,-117.2405491,"Sequoyah Hall, San Diego, CA 92161, USA"
Seventh College East #1,SEVENTH COLLEGE EAST #1,32.8886055,-117.2422681,"10176 Scholars Dr N, La Jolla, CA 92093, USA"
Seventh College East #2,SEVENTH COLLEGE EAST #2,32.8886055,-117.2422681,"10176 Scholars Dr N, La Jolla, CA 92093, USA"
Seventh College East #3,SEVENTH COLLEGE EAST #3,32.8886055,-117.2422681,"10176 Scholars Dr N, La Jolla, CA 92093, USA"
Seventh College East #4,SEVENTH COLLEGE EAST #4,32.8886055,-117.2422681,"10176 Scholars Dr N, La Jolla, CA 92093, USA"
Seventh College East #5,SEVENTH COLLEGE EAST #5,32.8886055,-117.2422681,"10176 Scholars Dr N, La Jolla, CA 92093, USA"
Seventh College East #6,SEVENTH COLLEGE EAST #6,32.8886055,-117.2422681,"10176 Scholars Dr N, La Jolla, CA 92093, USA"
Seventh College East #7,SEVENTH COLLEGE EAST #7,32.8886055,-117.2422681,"10176 Scholars Dr N, La Jolla, CA 92093, USA"
Seventh College West #1,SEVENTH COLLEGE WEST #1,32.8886055,-117.2422681,"10176 Scholars Dr N, La Jolla, CA 92093, USA"
Seventh College West #2,SEVENTH COLLEGE WEST #2,32.8886055,-117.2422681,"10176 Scholars Dr N, La Jolla, CA 92093, USA"
Seventh College West #3,SEVENTH COLLEGE WEST #3,32.8886055,-117.2422681,"10176 Scholars Dr N, La Jolla, CA 92093, USA"
Seventh College West #4,SEVENTH COLLEGE WEST #4,32.8886055,-117.2422681,"10176 Scholars Dr N, La Jolla, CA 92093, USA"
Seventh College West #5,SEVENTH COLLEGE WEST #5,32.8886055,-117.2422681,"10176 Scholars Dr N, La Jolla, CA 92093, USA"
Seventh College West #6,SEVENTH COLLEGE WEST #6,32.8886055,-117.2422681,"10176 Scholars Dr N, La Jolla, CA 92093, USA"
Seventh College West #7,SEVENTH COLLEGE WEST #7,32.8886055,-117.2422681,"10176 Scholars Dr N, La Jolla, CA 92093, USA"
Seventh College West #8,SEVENTH COLLEGE WEST #8,32.8886055,-117.2422681,"10176 Scholars Dr N, La Jolla, CA 92093, USA"
Shiley Eye Expansion,SHILEY EYE EXPANSION,32.8794451,-117.2229886,"9415 Campus Point Dr, San Diego, CA 92037, USA"
Shiley Eye Institute,SHILEY EYE INSTITUTE,32.8794451,-117.2229886,"9415 Campus Point Dr, San Diego, CA 92037, USA"
SIO New Director's Office,SIO NEW DIRECTOR'S OFFICE,32.8647913,-117.2543014,"8620 Kennel Way, La Jolla, CA 92037, USA"
SIO Radio Station,SIO RADIO STATION,32.8681401,-117.2503233,"8622 Kennel Way, La Jolla, CA 92037, USA"
SIO Research Containers,SIO RESEARCH CONTAINERS,32.8681401,-117.2503233,"8622 Kennel Way, La Jolla, CA 92037, USA"
SIO Trailer - North County,SIO TRAILER   NORTH COUNTY,32.881168,-117.2343605,"9500 Gilman Dr, La Jolla, CA 92093, USA"
Skaggs Pharmaceutical Sciences Building,SKAGGS PHARMACEUTICAL SCIENCES BUILDING,32.8744378,-117.2358516,"9255 Pharmacy Ln, La Jolla, CA 92093, USA"
Social Sciences Building,SOCIAL SCIENCES BUILDING,32.8839884,-117.2404494,"3000 Voigt Dr, La Jolla, CA 92093, USA"
Social Sciences Research Building,SOCIAL SCIENCES RESEARCH BUILDING,32.8807041,-117.2400766,"3019 Exploration Dr, La Jolla, CA 92093, USA"
Solidarity,SOLIDARITY,32.881168,-117.2343605,"9500 Gilman Dr, La Jolla, CA 92093, USA"
Solis Hall,SOLIS HALL,32.8809145,-117.2397849,"3031 Exploration Dr, La Jolla, CA 92093, USA"
South Entrance Visitor Information,SOUTH ENTRANCE VISITOR INFORMATION,32.881168,-117.2343605,"9500 Gilman Dr, La Jolla, CA 92093, USA"
South Parking,SOUTH PARKING,32.881168,-117.2343605,"9500 Gilman Dr, La Jolla, CA 92093, USA"
South Wing,SOUTH WING,32.881168,-117.2343605,"9500 Gilman Dr, La Jolla, CA 92093, USA"
Spanos Athletic Performance Center,SPANOS ATHLETIC PERFORMANCE CENTER,32.8904102,-117.240467,"10285 North Point Ln, La Jolla, CA 92093, USA"
Spanos Athletic Training Facility,SPANOS ATHLETIC TRAINING FACILITY,32.8904102,-117.240467,"10285 North Point Ln, La Jolla, CA 92093, USA"
Splash Cafe at Birch Aquarium,SPLASH CAFE AT BIRCH AQUARIUM,32.8658454,-117.2503305,"2300 Expedition Way, La Jolla, CA 92037, USA"
Stein Clinical Research Building,STEIN CLINICAL RESEARCH BUILDING,32.875958,-117.2340132,"9575 Gilman Dr, La Jolla, CA 92093, USA"
Stewart Commons,STEWART COMMONS,32.878911,-117.2425361,"Stewart Commons, San Diego, CA 92161, USA"
Stewart Commons Annex,STEWART COMMONS ANNEX,32.8792555,-117.2426029,"Stewart Commons Annex, San Diego, CA 92161, USA"
Stewart Hall,STEWART HALL,32.8841688,-117.2324735,"9840 Justice Ln, La Jolla, CA 92093, USA"
Stickleback,STICKLEBACK,32.881168,-117.2343605,"9500 Gilman Dr, La Jolla, CA 92093, USA"
Strain Gauge A,STRAIN GAUGE A,32.881168,-117.2343605,"9500 Gilman Dr, La Jolla, CA 92093, USA"
Strain Gauge B,STRAIN GAUGE B,32.881168,-117.2343605,"9500 Gilman Dr, La Jolla, CA 92093, USA"
Structural and Materials Engineering Building,STRUCTURAL AND MATERIALS ENGINEERING BUILDING,32.8800218,-117.2329402,"3291 Voigt Dr, La Jolla, CA 92093, USA"
Stuart Collection Storage,STUART COLLECTION STORAGE,32.8785511,-117.2337171,"9500 Gilman Dr, La Jolla, CA 92093, USA"
Student Center A - Building A,STUDENT CENTER A   BUILDING A,32.881168,-117.2343605,"9500 Gilman Dr, La Jolla, CA 92093, USA"
Student Center A - Building C,STUDENT CENTER A   BUILDING C,32.881168,-117.2343605,"9500 Gilman Dr, La Jolla, CA 92093, USA"
Student Center A - Building EN,STUDENT CENTER A   BUILDING EN,32.881168,-117.2343605,"9500 Gilman Dr, La Jolla, CA 92093, USA"
Student Center A - Building ES,STUDENT CENTER A   BUILDING ES,32.881168,-117.2343605,"9500 Gilman Dr, La Jolla, CA 92093, USA"
Student Center A - Building F,STUDENT CENTER A   BUILDING F,32.881168,-117.2343605,"9500 Gilman Dr, La Jolla, CA 92093, USA"
Student Center A - Building G,STUDENT CENTER A   BUILDING G,32.881168,-117.2343605,"9500 Gilman Dr, La Jolla, CA 92093, USA"
Student Center A - Building H,STUDENT CENTER A   BUILDING H,32.881168,-117.2343605,"9500 Gilman Dr, La Jolla, CA 92093, USA"
Student Center B,STUDENT CENTER B,32.8772123,-117.2386337,"9358 Mandeville Ln, La Jolla, CA 92093, USA"
Student Center Pub,STUDENT CENTER PUB,32.881168,-117.2343605,"9500 Gilman Dr, La Jolla, CA 92093, USA"
Student Health and Wellness Center,STUDENT HEALTH AND WELLNESS CENTER,32.8793889,-117.2380261,"9521 Mandeville Ln, La Jolla, CA 92093, USA"
Student Health and Wellness Expansion,STUDENT HEALTH AND WELLNESS EXPANSION,32.87968,-117.23818,"9523 Mandeville Ln, La Jolla, CA 92093, USA"
Student Services Center,STUDENT SERVICES CENTER,32.8785203,-117.235886,"9460 Russell Ln, La Jolla, CA 92093, USA"
Sulpizio Family Cardiovascular Center,SULPIZIO FAMILY CARDIOVASCULAR CENTER,32.8788723,-117.225894,"9434 Medical Ctr Dr, La Jolla, CA 92037, USA"
Sumner Auditorium,SUMNER AUDITORIUM,32.881168,-117.2343605,"9500 Gilman Dr, La Jolla, CA 92093, USA"
Surgery Research Laboratory,SURGERY RESEARCH LABORATORY,32.881168,-117.2343605,"9500 Gilman Dr, La Jolla, CA 92093, USA"
Survivance,SURVIVANCE,32.881168,-117.2343605,"9500 Gilman Dr, La Jolla, CA 92093, USA"
Sverdrup Hall,SVERDRUP HALL,32.881168,-117.2343605,"9500 Gilman Dr, La Jolla, CA 92093, USA"
T-25 Cottage,T 25 COTTAGE,32.881168,-117.2343605,"9500 Gilman Dr, La Jolla, CA 92093, USA"
T-30 Cottage,T 30 COTTAGE,32.881168,-117.2343605,"9500 Gilman Dr, La Jolla, CA 92093, USA"
T-31 Cottage,T 31 COTTAGE,32.881168,-117.2343605,"9500 Gilman Dr, La Jolla, CA 92093, USA"
T. Denny Sanford Medical Education and Telemedicine Center,T. DENNY SANFORD MEDICAL EDUCATION AND TELEMEDICINE CENTER,32.8752113,-117.2347748,"3160 Biomedical Sciences Wy, La Jolla, CA 92093, USA"
Tamarack Apartments East,TAMARACK APARTMENTS EAST,32.8783854,-117.2423065,"Tamarack Apartments, Scholars Ln, San Diego, CA 92161, USA"
Tamarack Apartments West,TAMARACK APARTMENTS WEST,32.8328112,-117.2712717,"La Jolla, San Diego, CA, USA"
Tapestry,TAPESTRY,32.881168,-117.2343605,"9500 Gilman Dr, La Jolla, CA 92093, USA"
Tata Hall,TATA HALL,32.8763619,-117.2416957,"9325 S Scholars Dr, La Jolla, CA 92093, USA"
Telecommunications Node B,TELECOMMUNICATIONS NODE B,32.881168,-117.2343605,"9500 Gilman Dr, La Jolla, CA 92093, USA"
Tenaya Hall,TENAYA HALL,32.8794203,-117.2428555,"Tenaya Hall, San Diego, CA 92161, USA"
The Jeannie,THE JEANNIE,32.8798735,-117.2411967,"9615 Scholars Dr N, La Jolla, CA 92093, USA"
Theodore Gildred Facility,THEODORE GILDRED FACILITY,32.881168,-117.2343605,"9500 Gilman Dr, La Jolla, CA 92093, USA"
Thomas Wayland Vaughan Hall,THOMAS WAYLAND VAUGHAN HALL,32.8655538,-117.2529729,"8650 Naga Ln, La Jolla, CA 92037, USA"
Thornton Pavilion,THORNTON PAVILION,32.8781727,-117.2256049,"9300 Campus Point Dr, La Jolla, CA 92037, USA"
Thornton Supplemental Storage,THORNTON SUPPLEMENTAL STORAGE,32.881168,-117.2343605,"9500 Gilman Dr, La Jolla, CA 92093, USA"
Thurgood Marshall College Administration Building,THURGOOD MARSHALL COLLEGE ADMINISTRATION BUILDING,32.8831443,-117.2431716,"San Diego, CA 92161, USA"
Tierra,TIERRA,32.881168,-117.2343605,"9500 Gilman Dr, La Jolla, CA 92093, USA"
Tioga Hall,TIOGA HALL,32.8790439,-117.2433669,"9485 S Scholars Dr, La Jolla, CA 92093, USA"
Torrey Pines Center North,TORREY PINES CENTER NORTH,32.8905271,-117.2430509,"Torrey Pines Center, 10280 N Torrey Pines Rd, La Jolla, CA 92037, USA"
Torrey Pines Center North Parking,TORREY PINES CENTER NORTH PARKING,32.8905271,-117.2430509,"Torrey Pines Center, 10280 N Torrey Pines Rd, La Jolla, CA 92037, USA"
Torrey Pines Center South,TORREY PINES CENTER SOUTH,32.8905271,-117.2430509,"Torrey Pines Center, 10280 N Torrey Pines Rd, La Jolla, CA 92037, USA"
Tower Link,TOWER LINK,32.881168,-117.2343605,"9500 Gilman Dr, La Jolla, CA 92093, USA"
Transit Operations Trailer,TRANSIT OPERATIONS TRAILER,32.881168,-117.2343605,"9500 Gilman Dr, La Jolla, CA 92093, USA"
Transportation Annex,TRANSPORTATION ANNEX,32.881168,-117.2343605,"9500 Gilman Dr, La Jolla, CA 92093, USA"
Triton Athletic Training,TRITON ATHLETIC TRAINING,32.881168,-117.2343605,"9500 Gilman Dr, La Jolla, CA 92093, USA"
Triton Clubhouse,TRITON CLUBHOUSE,32.881168,-117.2343605,"9500 Gilman Dr, La Jolla, CA 92093, USA"
Triton Stadium,TRITON STADIUM,32.8878193,-117.2401128,"La Jolla, CA 92093, USA"
Triton Transit Operations,TRITON TRANSIT OPERATIONS,32.8800301,-117.2202972,"La Jolla, CA 92037, USA"
Triton Transit Restrooms,TRITON TRANSIT RESTROOMS,32.8800301,-117.2202972,"La Jolla, CA 92037, USA"
Truth,TRUTH,32.881168,-117.2343605,"9500 Gilman Dr, La Jolla, CA 92093, USA"
Tuolumne Apartments - S House East,TUOLUMNE APARTMENTS   S HOUSE EAST,32.8782298,-117.2431541,"2920 Scholars Ln, La Jolla, CA 92093, USA"
Tuolumne Apartments - S House Laundry,TUOLUMNE APARTMENTS   S HOUSE LAUNDRY,32.8782298,-117.2431541,"2920 Scholars Ln, La Jolla, CA 92093, USA"
Tuolumne Apartments - S House North,TUOLUMNE APARTMENTS   S HOUSE NORTH,32.8782298,-117.2431541,"2920 Scholars Ln, La Jolla, CA 92093, USA"
Tuolumne Apartments - S House South,TUOLUMNE APARTMENTS   S HOUSE SOUTH,32.8782298,-117.2431541,"2920 Scholars Ln, La Jolla, CA 92093, USA"
Tuolumne Apartments - S House West,TUOLUMNE APARTMENTS   S HOUSE WEST,32.8328112,-117.2712717,"La Jolla, San Diego, CA, USA"
Tuolumne Apartments - T House East,TUOLUMNE APARTMENTS   T HOUSE EAST,32.8328112,-117.2712717,"La Jolla, San Diego, CA, USA"
Tuolumne Apartments - T House North,TUOLUMNE APARTMENTS   T HOUSE NORTH,32.8328112,-117.2712717,"La Jolla, San Diego, CA, USA"
Tuolumne Apartments - T House South,TUOLUMNE APARTMENTS   T HOUSE SOUTH,32.8328112,-117.2712717,"La Jolla, San Diego, CA, USA"
Tuolumne Apartments - T House West,TUOLUMNE APARTMENTS   T HOUSE WEST,32.8328112,-117.2712717,"La Jolla, San Diego, CA, USA"
Umoja,UMOJA,32.881168,-117.2343605,"9500 Gilman Dr, La Jolla, CA 92093, USA"
Unity,UNITY,32.881168,-117.2343605,"9500 Gilman Dr, La Jolla, CA 92093, USA"
University Center 104,UNIVERSITY CENTER 104,32.881168,-117.2343605,"9500 Gilman Dr, La Jolla, CA 92093, USA"
University Center 105,UNIVERSITY CENTER 105,32.881168,-117.2343605,"9500 Gilman Dr, La Jolla, CA 92093, USA"
University Center 106,UNIVERSITY CENTER 106,32.881168,-117.2343605,"9500 Gilman Dr, La Jolla, CA 92093, USA"
University Center 107,UNIVERSITY CENTER 107,32.881168,-117.2343605,"9500 Gilman Dr, La Jolla, CA 92093, USA"
University Center 108,UNIVERSITY CENTER 108,32.881168,-117.2343605,"9500 Gilman Dr, La Jolla, CA 92093, USA"
University Center 109,UNIVERSITY CENTER 109,32.881168,-117.2343605,"9500 Gilman Dr, La Jolla, CA 92093, USA"
University Center 110,UNIVERSITY CENTER 110,32.881168,-117.2343605,"9500 Gilman Dr, La Jolla, CA 92093, USA"
University Center 111,UNIVERSITY CENTER 111,32.881168,-117.2343605,"9500 Gilman Dr, La Jolla, CA 92093, USA"
University Center 112,UNIVERSITY CENTER 112,32.881168,-117.2343605,"9500 Gilman Dr, La Jolla, CA 92093, USA"
University Center 201,UNIVERSITY CENTER 201,32.87787,-117.23637,"9370 Myers Dr, La Jolla, CA 92093, USA"
University Center 202,UNIVERSITY CENTER 202,32.881168,-117.2343605,"9500 Gilman Dr, La Jolla, CA 92093, USA"
University Center 214,UNIVERSITY CENTER 214,32.881168,-117.2343605,"9500 Gilman Dr, La Jolla, CA 92093, USA"
University Center 215,UNIVERSITY CENTER 215,32.881168,-117.2343605,"9500 Gilman Dr, La Jolla, CA 92093, USA"
University Center 301,UNIVERSITY CENTER 301,32.881168,-117.2343605,"9500 Gilman Dr, La Jolla, CA 92093, USA"
University Center 301A,UNIVERSITY CENTER 301A,32.881168,-117.2343605,"9500 Gilman Dr, La Jolla, CA 92093, USA"
University Center 302,UNIVERSITY CENTER 302,32.881168,-117.2343605,"9500 Gilman Dr, La Jolla, CA 92093, USA"
University Center 303,UNIVERSITY CENTER 303,32.881168,-117.2343605,"9500 Gilman Dr, La Jolla, CA 92093, USA"
University Center 400,UNIVERSITY CENTER 400,32.881168,-117.2343605,"9500 Gilman Dr, La Jolla, CA 92093, USA"
University Center 401,UNIVERSITY CENTER 401,32.881168,-117.2343605,"9500 Gilman Dr, La Jolla, CA 92093, USA"
University Center 409,UNIVERSITY CENTER 409,32.881168,-117.2343605,"9500 Gilman Dr, La Jolla, CA 92093, USA"
University Center 611,UNIVERSITY CENTER 611,32.881168,-117.2343605,"9500 Gilman Dr, La Jolla, CA 92093, USA"
University Center 965,UNIVERSITY CENTER 965,32.881168,-117.2343605,"9500 Gilman Dr, La Jolla, CA 92093, USA"
Urey Hall,UREY HALL,32.8755628,-117.2410642,"Urey Hall, San Diego, CA 92161, USA"
Urey Hall Office Addition,UREY HALL OFFICE ADDITION,32.8755628,-117.2410642,"Urey Hall, San Diego, CA 92161, USA"
Veterans Affairs Medical Center,VETERANS AFFAIRS MEDICAL CENTER,32.881168,-117.2343605,"9500 Gilman Dr, La Jolla, CA 92093, USA"
Viento,VIENTO,32.881168,-117.2343605,"9500 Gilman Dr, La Jolla, CA 92093, USA"
Visual Arts Facility - Building 1,VISUAL ARTS FACILITY   BUILDING 1,32.881168,-117.2343605,"9500 Gilman Dr, La Jolla, CA 92093, USA"
Visual Arts Facility - Building 2,VISUAL ARTS FACILITY   BUILDING 2,32.881168,-117.2343605,"9500 Gilman Dr, La Jolla, CA 92093, USA"
Visual Arts Facility - Building 3,VISUAL ARTS FACILITY   BUILDING 3,32.881168,-117.2343605,"9500 Gilman Dr, La Jolla, CA 92093, USA"
Visual Arts Facility - Building 4,VISUAL ARTS FACILITY   BUILDING 4,32.881168,-117.2343605,"9500 Gilman Dr, La Jolla, CA 92093, USA"
Visual Arts Facility - Building 5,VISUAL ARTS FACILITY   BUILDING 5,32.8328112,-117.2712717,"La Jolla, San Diego, CA, USA"
Visual Arts Facility - Building 6,VISUAL ARTS FACILITY   BUILDING 6,32.881168,-117.2343605,"9500 Gilman Dr, La Jolla, CA 92093, USA"
Viterbi Construction Modular,VITERBI CONSTRUCTION MODULAR,32.881168,-117.2343605,"9500 Gilman Dr, La Jolla, CA 92093, USA"
Viterbi Family Vision Research Center,VITERBI FAMILY VISION RESEARCH CENTER,32.8328112,-117.2712717,"La Jolla, San Diego, CA, USA"
Voice,VOICE,32.881168,-117.2343605,"9500 Gilman Dr, La Jolla, CA 92093, USA"
W. M. Keck Building,W. M. KECK BUILDING,32.881168,-117.2343605,"9500 Gilman Dr, La Jolla, CA 92093, USA"
Warren Field House,WARREN FIELD HOUSE,32.8802422,-117.2304993,"Voigt Dr, La Jolla, CA 92093, USA"
Warren Lecture Hall,WARREN LECTURE HALL,32.8805291,-117.2343119,"Warren Lecture Hall, San Diego, CA 92161, USA"
Warren Pump House,WARREN PUMP HOUSE,32.881168,-117.2343605,"9500 Gilman Dr, La Jolla, CA 92093, USA"
Warren Student Activity Center,WARREN STUDENT ACTIVITY CENTER,32.8825521,-117.2333133,"La Jolla, CA 92093, USA"
Wells Fargo Hall,WELLS FARGO HALL,32.88696,-117.2417952,"10065 Scholars Dr N, La Jolla, CA 92093, USA"
West Environmental Bunker,WEST ENVIRONMENTAL BUNKER,32.881168,-117.2343605,"9500 Gilman Dr, La Jolla, CA 92093, USA"
West Tower and Bridge,WEST TOWER AND BRIDGE,32.881168,-117.2343605,"9500 Gilman Dr, La Jolla, CA 92093, USA"
West Wing,WEST WING,32.881168,-117.2343605,"9500 Gilman Dr, La Jolla, CA 92093, USA"
York Hall,YORK HALL,32.8742434,-117.2399332,"9240 Herbert York Ln, La Jolla, CA 92093, USA"
